{"type": "FeatureCollection", "features": [{"type": "Feature", "properties": {}, "geometry": {"type": "MultiLineString", "coordinates": [[[85.3416666666667, 28.164444444444484], [85.34250000000003, 28.165277777777817], [85.34250000000003, 28.165833333333353], [85.34305555555557, 28.166388888888832], [85.34305555555557, 28.16694444444454], [85.34250000000003, 28.167500000000075], [85.34250000000003, 28.168333333333408], [85.34277777777788, 28.16861111111109], [85.34277777777788, 28.169722222222276], [85.34250000000003, 28.17000000000013], [85.34250000000003, 28.170555555555666], [85.34277777777788, 28.17083333333335], [85.34277777777788, 28.171388888889], [85.34250000000003, 28.17166666666668], [85.34250000000003, 28.171944444444534], [85.34305555555557, 28.17250000000007], [85.34277777777788, 28.172777777777696], [85.34277777777788, 28.17388888888894], [85.34250000000003, 28.174166666666792], [85.34250000000003, 28.17555555555566], [85.34277777777788, 28.175833333333287], [85.34277777777788, 28.17694444444453], [85.34305555555557, 28.177222222222213], [85.34277777777788, 28.17750000000001], [85.34277777777788, 28.179722222222267], [85.34250000000003, 28.18000000000012], [85.34250000000003, 28.180277777777803], [85.34305555555557, 28.180833333333283], [85.34277777777788, 28.181111111111136], [85.34250000000003, 28.18138888888899], [85.34277777777788, 28.181666666666672], [85.34277777777788, 28.18305555555554], [85.34333333333342, 28.183611111111247], [85.34361111111104, 28.183333333333394], [85.3438888888889, 28.183333333333394], [85.34416666666675, 28.183611111111247], [85.34416666666675, 28.18444444444458], [85.34472222222229, 28.185000000000116], [85.34472222222229, 28.1852777777778], [85.34527777777777, 28.18583333333345], [85.34555555555562, 28.18583333333345], [85.34583333333347, 28.18611111111113], [85.34583333333347, 28.186388888888985], [85.34611111111116, 28.186666666666667], [85.34611111111116, 28.18694444444452], [85.34583333333347, 28.187222222222147], [85.34611111111116, 28.1875], [85.34611111111116, 28.187777777777853], [85.34638888888901, 28.188055555555536], [85.34638888888901, 28.18833333333339], [85.34666666666669, 28.188611111111243], [85.34666666666669, 28.18888888888887], [85.34750000000003, 28.189722222222258], [85.34750000000003, 28.19000000000011], [85.34805555555556, 28.19055555555559], [85.34805555555556, 28.191111111111127], [85.34861111111121, 28.191666666666663], [85.34861111111121, 28.19194444444446], [85.34916666666675, 28.192499999999995], [85.34916666666675, 28.193333333333385], [85.34944444444443, 28.19361111111118], [85.34944444444443, 28.193888888888864], [85.34972222222228, 28.194166666666717], [85.34972222222228, 28.19444444444457], [85.35027777777776, 28.195000000000107], [85.35027777777776, 28.196111111111122], [85.35055555555562, 28.196388888888976], [85.35055555555562, 28.1966666666666], [85.35222222222234, 28.198333333333323], [85.35222222222234, 28.199166666666713], [85.35250000000002, 28.199444444444566], [85.35250000000002, 28.200000000000045], [85.35277777777787, 28.2002777777779]], [[85.35277777777787, 28.2002777777779], [85.35277777777787, 28.20055555555558], [85.35277777777787, 28.201666666666597], [85.35305555555556, 28.20194444444445], [85.35305555555556, 28.202499999999986], [85.35333333333335, 28.20277777777784], [85.35333333333335, 28.20333333333332], [85.35388888888889, 28.203888888889026], [85.35388888888889, 28.20444444444456], [85.35416666666674, 28.204722222222188], [85.35416666666674, 28.205277777777894], [85.35472222222228, 28.20583333333343], [85.35444444444443, 28.206111111111113], [85.35444444444443, 28.20638888888891], [85.35472222222228, 28.206666666666763], [85.35472222222228, 28.20805555555563], [85.35444444444443, 28.208333333333314], [85.35444444444443, 28.21166666666676], [85.35472222222228, 28.21194444444444], [85.35472222222228, 28.212499999999977], [85.35527777777793, 28.213055555555627], [85.35500000000008, 28.21333333333331], [85.35500000000008, 28.213888888889016], [85.35472222222228, 28.2141666666667], [85.35472222222228, 28.214444444444496], [85.35500000000008, 28.21472222222235], [85.35472222222228, 28.215000000000032], [85.35472222222228, 28.215277777777885], [85.35472222222228, 28.215555555555568]], [[85.35305555555556, 28.2002777777779], [85.35277777777787, 28.2002777777779]], [[85.35472222222228, 28.215555555555568], [85.35444444444443, 28.215555555555568]], [[85.35472222222228, 28.215555555555568], [85.35527777777793, 28.216111111111047], [85.35527777777793, 28.2163888888889], [85.35555555555561, 28.216666666666754], [85.35583333333346, 28.216666666666754], [85.35611111111115, 28.216944444444437], [85.35611111111115, 28.21722222222229], [85.35666666666663, 28.21777777777777], [85.35666666666663, 28.21861111111116], [85.3580555555555, 28.220000000000027], [85.3580555555555, 28.22027777777788], [85.35888888888888, 28.221111111111213], [85.35916666666674, 28.221111111111213], [85.36083333333346, 28.222777777777765], [85.36083333333346, 28.22333333333347], [85.36138888888894, 28.223888888889007], [85.36138888888894, 28.224444444444487], [85.36083333333346, 28.225000000000023], [85.36111111111114, 28.225277777777876], [85.36111111111114, 28.225555555555502], [85.36083333333346, 28.225833333333355], [85.36111111111114, 28.22611111111121], [85.36111111111114, 28.22638888888889], [85.36111111111114, 28.226666666666745]], [[85.36111111111114, 28.226666666666745], [85.36111111111114, 28.226944444444428], [85.36111111111114, 28.22777777777776], [85.36083333333346, 28.228055555555613], [85.36083333333346, 28.228888888888946], [85.36111111111114, 28.2291666666668], [85.36111111111114, 28.229722222222335], [85.36083333333346, 28.230000000000018], [85.36083333333346, 28.230555555555497], [85.3605555555556, 28.23083333333335], [85.3605555555556, 28.231111111111204], [85.36083333333346, 28.231388888888887], [85.36027777777792, 28.231944444444366], [85.36027777777792, 28.232777777777756], [85.36000000000007, 28.23305555555561], [85.36000000000007, 28.233611111111088], [85.35972222222222, 28.23388888888894], [85.35972222222222, 28.234444444444478], [85.35916666666674, 28.235000000000014], [85.35916666666674, 28.23527777777781], [85.35888888888888, 28.235555555555663], [85.35888888888888, 28.236666666666736], [85.35833333333335, 28.237222222222215], [85.35833333333335, 28.238611111111084], [85.35888888888888, 28.23916666666679], [85.3586111111112, 28.239444444444473], [85.3586111111112, 28.239722222222326], [85.35833333333335, 28.239999999999952], [85.35833333333335, 28.24055555555566], [85.3580555555555, 28.24083333333334], [85.35833333333335, 28.241111111111195], [85.3580555555555, 28.241388888888878], [85.3580555555555, 28.241666666666674], [85.35833333333335, 28.241944444444528], [85.35833333333335, 28.24222222222221], [85.35972222222222, 28.24361111111125], [85.35972222222222, 28.243888888888932], [85.3605555555556, 28.24472222222232], [85.36083333333346, 28.24472222222232], [85.36138888888894, 28.2452777777778], [85.36166666666679, 28.2452777777778], [85.36277777777786, 28.246388888888816], [85.36305555555549, 28.246388888888816], [85.36333333333334, 28.24666666666667], [85.36333333333334, 28.247222222222206], [85.3636111111112, 28.24750000000006], [85.3636111111112, 28.247777777777912], [85.36388888888888, 28.24805555555554], [85.36388888888888, 28.24833333333339], [85.36416666666673, 28.248611111111245], [85.36416666666673, 28.248888888888928], [85.36500000000007, 28.24972222222226], [85.36500000000007, 28.250000000000114], [85.3655555555556, 28.25055555555565], [85.3655555555556, 28.251388888888812], [85.36527777777792, 28.251666666666665], [85.36527777777792, 28.25194444444452], [85.36500000000007, 28.2522222222222], [85.36500000000007, 28.252500000000055], [85.36500000000007, 28.252777777777908], [85.36500000000007, 28.253055555555534], [85.36472222222221, 28.253333333333387], [85.36500000000007, 28.25361111111124], [85.36500000000007, 28.254166666666777], [85.36527777777792, 28.254444444444403], [85.36500000000007, 28.254722222222256], [85.3655555555556, 28.255277777777792], [85.3655555555556, 28.256111111111125], [85.36527777777792, 28.256388888888978], [85.36527777777792, 28.25666666666666], [85.36583333333346, 28.257222222222197], [85.36583333333346, 28.257777777777846], [85.36666666666679, 28.258611111111236], [85.36694444444447, 28.258333333333383], [85.3677777777778, 28.259166666666772], [85.36805555555566, 28.25888888888892], [85.36833333333334, 28.25888888888892], [85.36861111111119, 28.259166666666772], [85.36888888888905, 28.259166666666772], [85.36944444444453, 28.25972222222225], [85.36972222222221, 28.25972222222225], [85.37166666666678, 28.261666666666656], [85.37194444444447, 28.261666666666656], [85.37249999999995, 28.262222222222363], [85.37249999999995, 28.26249999999999], [85.3727777777778, 28.262777777777842], [85.3727777777778, 28.263888888888914], [85.37305555555565, 28.26416666666671], [85.37305555555565, 28.264444444444564], [85.37444444444452, 28.265833333333262], [85.3747222222222, 28.265833333333262], [85.3755555555556, 28.26666666666665], [85.37583333333339, 28.266944444444505], [85.37583333333339, 28.267222222222358], [85.37611111111124, 28.267499999999984], [85.37611111111124, 28.268611111111227], [85.3777777777778, 28.27027777777778], [85.3777777777778, 28.271388888888964], [85.37749999999994, 28.271666666666647], [85.37749999999994, 28.2719444444445], [85.37722222222231, 28.272222222222297], [85.37722222222231, 28.27249999999998], [85.3777777777778, 28.273055555555686], [85.3777777777778, 28.27333333333337], [85.37749999999994, 28.273611111111222], [85.37749999999994, 28.274444444444555], [85.3777777777778, 28.274722222222238], [85.37749999999994, 28.27500000000009], [85.37749999999994, 28.275277777777717], [85.37694444444446, 28.275833333333424], [85.37694444444446, 28.27638888888896], [85.37666666666678, 28.276666666666642], [85.37666666666678, 28.27805555555568], [85.37694444444446, 28.278333333333364], [85.37694444444446, 28.27861111111116], [85.37666666666678, 28.278888888889014], [85.37694444444446, 28.279166666666697], [85.37722222222231, 28.27944444444455], [85.37749999999994, 28.279722222222233], [85.3777777777778, 28.27944444444455], [85.37805555555565, 28.27944444444455], [85.37833333333333, 28.279166666666697], [85.37861111111118, 28.279166666666697], [85.37888888888904, 28.27944444444455], [85.37916666666666, 28.27944444444455], [85.37944444444452, 28.279722222222233], [85.3797222222222, 28.279722222222233], [85.38000000000005, 28.280000000000086], [85.38000000000005, 28.280555555555566], [85.3802777777779, 28.28083333333342], [85.38055555555553, 28.280555555555566], [85.38083333333338, 28.28083333333342], [85.38111111111124, 28.28083333333342], [85.38138888888892, 28.2811111111111], [85.38138888888892, 28.281388888888955], [85.38166666666677, 28.28166666666658], [85.38194444444446, 28.28166666666658], [85.38388888888898, 28.283611111111156], [85.38388888888898, 28.28388888888901], [85.38472222222236, 28.28472222222223], [85.38472222222236, 28.285000000000025], [85.38500000000005, 28.28527777777788], [85.3852777777779, 28.285000000000025], [85.38555555555553, 28.28527777777788], [85.38583333333338, 28.28527777777788], [85.38611111111123, 28.28555555555556], [85.38666666666677, 28.28555555555556], [85.38777777777779, 28.286666666666747], [85.38833333333332, 28.286666666666747], [85.38888888888897, 28.287222222222283], [85.38916666666682, 28.28694444444443], [85.38972222222236, 28.287500000000136], [85.39000000000004, 28.287500000000136], [85.39027777777784, 28.28777777777782], [85.3905555555557, 28.28777777777782], [85.39083333333338, 28.288055555555673], [85.39083333333338, 28.288611111111152], [85.39111111111123, 28.288888888889005], [85.39138888888891, 28.288611111111152], [85.39166666666677, 28.288611111111152], [85.3925000000001, 28.28944444444454], [85.39277777777778, 28.28944444444454], [85.39305555555563, 28.289722222222167], [85.39305555555563, 28.29000000000002], [85.3944444444445, 28.29138888888889], [85.39472222222236, 28.29138888888889], [85.39499999999998, 28.291111111111093], [85.39527777777784, 28.291111111111093], [85.39638888888891, 28.29222222222228], [85.39638888888891, 28.292777777777815], [85.3966666666667, 28.29305555555561], [85.3966666666667, 28.293611111111147], [85.39694444444456, 28.293888888889], [85.3966666666667, 28.294166666666683], [85.39722222222224, 28.294722222222163], [85.39694444444456, 28.295000000000016], [85.39694444444456, 28.296666666666738], [85.3975000000001, 28.297222222222274], [85.39777777777778, 28.297222222222274], [85.39805555555563, 28.297500000000127], [85.39777777777778, 28.297777777777753], [85.39833333333326, 28.29833333333346], [85.39833333333326, 28.298611111111143], [85.39861111111111, 28.298888888888996], [85.39888888888896, 28.298888888888996], [85.39916666666682, 28.29916666666668], [85.39972222222235, 28.29916666666668], [85.39999999999998, 28.299444444444475], [85.40027777777783, 28.299444444444475], [85.40083333333337, 28.30000000000001], [85.40083333333337, 28.300277777777865], [85.4016666666667, 28.301111111111197], [85.40194444444455, 28.301111111111197], [85.40222222222224, 28.30138888888888], [85.40333333333342, 28.30138888888888], [85.4036111111111, 28.301666666666733], [85.40388888888896, 28.301666666666733], [85.40416666666681, 28.301944444444416], [85.4044444444445, 28.301944444444416], [85.40694444444455, 28.30444444444447], [85.40722222222223, 28.30444444444447], [85.40777777777771, 28.305000000000007], [85.40805555555556, 28.305000000000007], [85.40833333333342, 28.30527777777786], [85.40833333333342, 28.305555555555543], [85.4091666666668, 28.306388888888875], [85.4091666666668, 28.30666666666673], [85.40944444444443, 28.306944444444582], [85.40972222222229, 28.306944444444582], [85.41027777777782, 28.30750000000006], [85.41055555555567, 28.30750000000006], [85.41083333333336, 28.307777777777915], [85.41111111111115, 28.307777777777915], [85.41194444444454, 28.308611111111134], [85.41194444444454, 28.308888888888987], [85.41222222222223, 28.309166666666613], [85.41222222222223, 28.30972222222232], [85.41194444444454, 28.310000000000002], [85.41194444444454, 28.310277777777856], [85.41166666666669, 28.31055555555548], [85.41166666666669, 28.310833333333335], [85.41194444444454, 28.310833333333335], [85.41388888888895, 28.31277777777791], [85.41388888888895, 28.31361111111113], [85.4136111111111, 28.313888888888926], [85.4136111111111, 28.314722222222315], [85.41388888888895, 28.314999999999998], [85.4136111111111, 28.31527777777785], [85.4136111111111, 28.31666666666672], [85.41388888888895, 28.316944444444573], [85.4136111111111, 28.3172222222222], [85.4136111111111, 28.317777777777906], [85.41333333333341, 28.31805555555559], [85.41333333333341, 28.318611111111068], [85.4136111111111, 28.31888888888892], [85.41333333333341, 28.319166666666774], [85.41333333333341, 28.319999999999993], [85.41305555555556, 28.32027777777779], [85.41305555555556, 28.320833333333326], [85.41277777777788, 28.32111111111118], [85.41305555555556, 28.321388888889032], [85.41305555555556, 28.32194444444451], [85.41333333333341, 28.322222222222194], [85.41277777777788, 28.3227777777779], [85.41277777777788, 28.323333333333437], [85.41305555555556, 28.323611111111063], [85.41305555555556, 28.32416666666677], [85.41333333333341, 28.324444444444453], [85.41333333333341, 28.324722222222306], [85.41444444444443, 28.32583333333332], [85.41444444444443, 28.326111111111175], [85.41472222222228, 28.326388888889028], [85.41472222222228, 28.326666666666654], [85.41500000000013, 28.326666666666654], [85.41527777777782, 28.326944444444507], [85.41694444444454, 28.326944444444507], [85.41722222222222, 28.326666666666654], [85.41833333333341, 28.327777777777897], [85.41888888888894, 28.327777777777897], [85.41916666666674, 28.32805555555558], [85.42000000000013, 28.32805555555558], [85.42027777777781, 28.328333333333376], [85.42027777777781, 28.32861111111123], [85.42055555555567, 28.328888888888912], [85.42083333333329, 28.328888888888912], [85.42111111111114, 28.329166666666765], [85.421388888889, 28.329166666666765], [85.42194444444453, 28.3297222222223], [85.42222222222216, 28.3297222222223]], [[85.36138888888894, 28.226666666666745], [85.36111111111114, 28.226666666666745]], [[85.5122222222223, 28.29305555555561], [85.5122222222223, 28.293333333333464], [85.5122222222223, 28.293611111111147], [85.51194444444451, 28.293888888889], [85.51194444444451, 28.294166666666683], [85.51166666666666, 28.294444444444537], [85.51166666666666, 28.294722222222163], [85.51138888888897, 28.295000000000016], [85.51138888888897, 28.29527777777787], [85.51027777777779, 28.296388888888885], [85.5100000000001, 28.296388888888885], [85.50972222222225, 28.296666666666738], [85.50972222222225, 28.297222222222274], [85.50916666666672, 28.297777777777753], [85.50888888888886, 28.297777777777753], [85.50694444444451, 28.29972222222233], [85.50694444444451, 28.300277777777865], [85.50527777777779, 28.301944444444416], [85.50527777777779, 28.30222222222227], [85.50500000000011, 28.302500000000123], [85.50472222222226, 28.302500000000123], [85.50361111111124, 28.303611111111138], [85.50361111111124, 28.304166666666617], [85.50333333333339, 28.30444444444447], [85.50305555555553, 28.30444444444447], [85.50111111111113, 28.306388888888875], [85.50111111111113, 28.30666666666673], [85.50083333333328, 28.306944444444582], [85.50055555555565, 28.306944444444582], [85.5002777777778, 28.307222222222265], [85.5002777777778, 28.30750000000006], [85.49861111111125, 28.309166666666613], [85.49861111111125, 28.30972222222232], [85.49833333333339, 28.310000000000002], [85.49833333333339, 28.310277777777856], [85.49805555555554, 28.31055555555548], [85.49777777777786, 28.31055555555548], [85.4952777777778, 28.313055555555593], [85.49444444444441, 28.313055555555593], [85.49416666666679, 28.313055555555593], [85.49388888888893, 28.313055555555593], [85.49361111111125, 28.313055555555593], [85.49277777777792, 28.313888888888926], [85.49222222222238, 28.313888888888926], [85.49194444444453, 28.31416666666678], [85.49194444444453, 28.31444444444446], [85.49138888888882, 28.314999999999998], [85.4911111111112, 28.314999999999998], [85.49055555555566, 28.315555555555477], [85.4902777777778, 28.315555555555477], [85.48972222222227, 28.316111111111184], [85.48972222222227, 28.316388888888866], [85.48916666666679, 28.316944444444573], [85.48861111111125, 28.316944444444573], [85.48805555555555, 28.317500000000052], [85.48805555555555, 28.319166666666774], [85.4883333333334, 28.319444444444457], [85.4883333333334, 28.31972222222231], [85.48861111111125, 28.319999999999993], [85.48861111111125, 28.32027777777779], [85.4883333333334, 28.320555555555643], [85.4883333333334, 28.321388888889032], [85.48750000000007, 28.322222222222194], [85.48750000000007, 28.322500000000048], [85.48722222222221, 28.3227777777779], [85.48722222222221, 28.323055555555584], [85.48638888888883, 28.323888888888916], [85.4861111111112, 28.323888888888916], [85.48583333333335, 28.32416666666677], [85.48583333333335, 28.324444444444453], [85.48555555555566, 28.324722222222306], [85.48555555555566, 28.324999999999932], [85.48527777777781, 28.325277777777785], [85.48527777777781, 28.32555555555564], [85.48444444444448, 28.326388888889028], [85.48499999999996, 28.326944444444507], [85.48444444444448, 28.327500000000043], [85.48527777777781, 28.328333333333376], [85.48499999999996, 28.32861111111123], [85.48499999999996, 28.329166666666765], [85.48527777777781, 28.329444444444448], [85.48527777777781, 28.330555555555634], [85.48583333333335, 28.33111111111117], [85.48583333333335, 28.331388888889023], [85.48499999999996, 28.332222222222356], [85.48472222222233, 28.332222222222356], [85.4841666666668, 28.332777777777892], [85.48388888888894, 28.332777777777892], [85.48361111111126, 28.333055555555518], [85.48305555555561, 28.333055555555518], [85.48277777777776, 28.332777777777892], [85.48194444444454, 28.332777777777892], [85.48166666666668, 28.333055555555518], [85.48055555555567, 28.333055555555518], [85.48027777777781, 28.332777777777892], [85.47750000000008, 28.332777777777892], [85.47722222222222, 28.333055555555518], [85.47527777777782, 28.333055555555518], [85.47500000000002, 28.33333333333337], [85.4741666666668, 28.33333333333337], [85.47388888888895, 28.333611111111225], [85.47277777777776, 28.333611111111225], [85.47250000000008, 28.333888888888907], [85.4705555555555, 28.333888888888907], [85.47027777777788, 28.33416666666676], [85.46944444444449, 28.33416666666676], [85.46916666666681, 28.334444444444443], [85.46805555555562, 28.334444444444443], [85.46750000000009, 28.335000000000093], [85.46722222222223, 28.335000000000093], [85.46694444444444, 28.335277777777776], [85.46611111111122, 28.335277777777776], [85.46555555555551, 28.335833333333312], [85.46416666666664, 28.335833333333312], [85.46388888888902, 28.336111111111165], [85.46361111111116, 28.335833333333312], [85.46305555555563, 28.335833333333312], [85.46277777777777, 28.336111111111165], [85.46249999999992, 28.336111111111165], [85.4622222222223, 28.336388888888962], [85.46166666666676, 28.336388888888962], [85.4613888888889, 28.336666666666645], [85.45805555555563, 28.336666666666645], [85.45777777777778, 28.336388888888962], [85.45666666666676, 28.336388888888962], [85.45638888888891, 28.336111111111165], [85.45611111111106, 28.336388888888962], [85.45583333333343, 28.336111111111165], [85.45472222222236, 28.336111111111165], [85.4544444444445, 28.335833333333312], [85.45416666666671, 28.335833333333312], [85.45388888888903, 28.33555555555563], [85.45361111111117, 28.33555555555563], [85.45333333333349, 28.335277777777776], [85.45277777777778, 28.335277777777776], [85.45249999999999, 28.33555555555563], [85.4522222222223, 28.33555555555563], [85.45194444444445, 28.335277777777776], [85.4502777777779, 28.335277777777776], [85.45000000000005, 28.335000000000093], [85.44916666666671, 28.335000000000093], [85.44888888888903, 28.335277777777776], [85.44861111111118, 28.335000000000093], [85.44805555555564, 28.335000000000093], [85.44777777777784, 28.335277777777776], [85.44638888888892, 28.335277777777776], [85.44611111111112, 28.335000000000093], [85.44583333333344, 28.335000000000093], [85.4452777777779, 28.33555555555563], [85.4447222222222, 28.33555555555563], [85.44444444444457, 28.335277777777776], [85.4425, 28.335277777777776], [85.44222222222231, 28.335000000000093], [85.44083333333344, 28.335000000000093], [85.44055555555559, 28.335277777777776], [85.44027777777791, 28.335277777777776]], [[85.42222222222216, 28.3297222222223], [85.42222222222216, 28.329999999999927]], [[85.44027777777791, 28.335277777777776], [85.44000000000005, 28.335277777777776], [85.43972222222226, 28.335000000000093], [85.43916666666672, 28.335000000000093], [85.43888888888887, 28.33472222222224], [85.43722222222232, 28.33472222222224], [85.43694444444446, 28.334444444444443], [85.43638888888898, 28.334444444444443], [85.43611111111113, 28.33416666666676], [85.4355555555556, 28.33416666666676], [85.43500000000012, 28.333611111111225], [85.43472222222226, 28.333611111111225], [85.4333333333334, 28.332222222222356], [85.43305555555571, 28.332222222222356], [85.43277777777786, 28.331944444444503], [85.43277777777786, 28.33166666666665], [85.4325, 28.331388888889023], [85.43194444444447, 28.331388888889023], [85.43166666666667, 28.33111111111117], [85.43138888888899, 28.33111111111117], [85.43083333333345, 28.330555555555634], [85.43027777777775, 28.330555555555634], [85.42972222222227, 28.329999999999927], [85.42861111111125, 28.329999999999927], [85.4283333333334, 28.33027777777778], [85.42694444444453, 28.33027777777778], [85.42666666666668, 28.330555555555634], [85.426388888889, 28.33027777777778], [85.42583333333346, 28.33027777777778], [85.4255555555556, 28.329999999999927], [85.42472222222227, 28.329999999999927], [85.42444444444459, 28.3297222222223], [85.42388888888888, 28.3297222222223], [85.42361111111109, 28.329999999999927], [85.4233333333334, 28.329999999999927], [85.42305555555555, 28.3297222222223], [85.42250000000001, 28.3297222222223], [85.42222222222216, 28.3297222222223]], [[85.44027777777791, 28.335277777777776], [85.44027777777791, 28.33555555555563]]]}}, {"type": "Feature", "properties": {}, "geometry": {"type": "LineString", "coordinates": [[83.85122203, 27.35502425], [83.85304931, 27.36111306], [83.85645136, 27.36626705], [83.85959237, 27.37071836], [83.86509436, 27.37470365], [83.86876045, 27.37915525], [83.87059021, 27.38430739], [83.87241636, 27.39273703], [83.87240856, 27.3995262], [83.87083043, 27.40327052], [83.86714947, 27.41052446], [83.86268215, 27.41684107], [83.86188932, 27.42152249], [83.86293265, 27.42643979], [83.86555455, 27.427847], [83.8718475, 27.43113045], [83.88548844, 27.43348341], [83.90804808, 27.43935284], [83.92614794, 27.44708919], [83.93401745, 27.45177529], [83.94005036, 27.45692841], [83.94319704, 27.46184599], [83.94503196, 27.46629478], [83.94502975, 27.47074283], [83.94135064, 27.47940332], [83.93951105, 27.48338234], [83.93872083, 27.48829825], [83.93950606, 27.49251252], [83.94186773, 27.49438638], [83.95341694, 27.49860465], [83.96181662, 27.50258701], [83.96759114, 27.50727062], [83.96995283, 27.51195328], [83.96995194, 27.51523078], [83.96863816, 27.51850796], [83.96601136, 27.52178484], [83.95997043, 27.52576302], [83.9557682, 27.5274005], [83.95392991, 27.527634], [83.95130401, 27.52739901], [83.94920579, 27.52177972], [83.94553187, 27.51709619], [83.93975699, 27.51381634], [83.93293079, 27.51287678], [83.92846716, 27.51287455], [83.92452706, 27.51521355], [83.92242372, 27.51919219], [83.92242109, 27.52293788], [83.92215701, 27.52504469], [83.91952899, 27.52785246], [83.91900004, 27.53300247], [83.91899729, 27.53674816], [83.91899472, 27.54025974], [83.91978124, 27.54213302], [83.921881, 27.54400706], [83.9266082, 27.54447786], [83.93107267, 27.54518245], [83.93422438, 27.54518398], [83.93816508, 27.54331295], [83.94263113, 27.54097381], [83.94578275, 27.54097508], [83.94972201, 27.54144477], [83.95576164, 27.54378787], [83.95970022, 27.54659833], [83.96442694, 27.54940888], [83.96862906, 27.55058041], [83.97125563, 27.55058098], [83.97256896, 27.55034717], [83.97913592, 27.54730493], [83.98649035, 27.54496477], [83.99095526, 27.54496514], [83.99515755, 27.54496535], [83.99792858, 27.5457062], [84.00118325, 27.54548288], [84.0043167, 27.54503612], [84.00851539, 27.54308168], [84.00983136, 27.5422999], [84.01860396, 27.53710629], [84.02418112, 27.53716127], [84.02875595, 27.53822127], [84.03314261, 27.53855531], [84.03652699, 27.53983867], [84.03922243, 27.54207138], [84.04003754, 27.54324369], [84.04173061, 27.54592329], [84.0437373, 27.54916113], [84.04423939, 27.55094771], [84.04637171, 27.55435298], [84.04756305, 27.55558095], [84.05007044, 27.55647345], [84.05119868, 27.5565847], [84.05307896, 27.556584], [84.05846332, 27.55462845], [84.06215954, 27.55177921], [84.06460347, 27.55121976], [84.06673455, 27.55160959], [84.06836493, 27.55300469], [84.06980774, 27.55506987], [84.07137594, 27.55713499], [84.07306915, 27.55858583], [84.07620321, 27.55886335], [84.08115399, 27.55791133], [84.08466345, 27.55735087], [84.08742008, 27.55595329], [84.08998859, 27.55449993], [84.09337232, 27.55366017], [84.097571, 27.55309891], [84.10082991, 27.55298493], [84.1055289, 27.55136221], [84.10891258, 27.55068957], [84.11116926, 27.55119032], [84.11336408, 27.55241691], [84.11562185, 27.55386678], [84.11649986, 27.5544244], [84.11950271, 27.55990611], [84.12019358, 27.56118972], [84.12238927, 27.56297454], [84.12433366, 27.56414535], [84.1260896, 27.56492546], [84.12847237, 27.56570495], [84.13104399, 27.56715427], [84.13374257, 27.56983178], [84.1358773, 27.57267733], [84.1361869, 27.57751883], [84.1357799, 27.58248663], [84.13588602, 27.58478624], [84.1354766, 27.58782226], [84.13537806, 27.59168586], [84.13537987, 27.59315768], [84.13610531, 27.59508874], [84.13786351, 27.59683479], [84.14106768, 27.59839537], [84.14551095, 27.59949464], [84.14985108, 27.60068587], [84.15719233, 27.60555314], [84.16329547, 27.61106539], [84.16908854, 27.61611778], [84.1706424, 27.61878354], [84.17147278, 27.6212662], [84.17199326, 27.62374922], [84.17210076, 27.62641674], [84.17231389, 27.63055591], [84.17459439, 27.63515247], [84.17511396, 27.63699156], [84.17574598, 27.63874032], [84.17793415, 27.64038825], [84.17965731, 27.64115244], [84.18376378, 27.64132392], [84.18521972, 27.64067348], [84.18667342, 27.63872604], [84.18773155, 27.6378403], [84.19031367, 27.63742408], [84.19402389, 27.63830326], [84.1962771, 27.63912546], [84.1991917, 27.63947502], [84.20237095, 27.63964731], [84.20667861, 27.64117376], [84.20913162, 27.64252602], [84.21092287, 27.6441151], [84.21344466, 27.64670523], [84.21517395, 27.65041667], [84.21915867, 27.65577527], [84.22029296, 27.65990027], [84.22142357, 27.66213872], [84.22321447, 27.66331493], [84.2261297, 27.66360498], [84.22871165, 27.66289328], [84.23168879, 27.66111972], [84.23340878, 27.66005566], [84.23557839, 27.65896319], [84.23769713, 27.6585469], [84.23902178, 27.65848566], [84.2425319, 27.65824375], [84.24571123, 27.65817921], [84.2494883, 27.65882093], [84.25174338, 27.66011384], [84.25506, 27.66211224], [84.25751604, 27.664289], [84.25884427, 27.66543812], [84.26030392, 27.6667009], [84.26236086, 27.66811193], [84.26481373, 27.66887366], [84.26905413, 27.66916028], [84.27382361, 27.66909197], [84.27654248, 27.67020668], [84.28085459, 27.67261513], [84.28463602, 27.67467081], [84.28967368, 27.67572152], [84.29350646, 27.67607697], [84.29768061, 27.67624491], [84.30073163, 27.67753531], [84.30451291, 27.67935463], [84.30703358, 27.68046918], [84.31167419, 27.68151999], [84.31485616, 27.6821613], [84.31777504, 27.68345162], [84.31989976, 27.68503846], [84.32176093, 27.68709753], [84.3234241, 27.68939285], [84.32462699, 27.6928683], [84.32595655, 27.69433904], [84.32801519, 27.69586697], [84.33046969, 27.6968044], [84.33332249, 27.69797662], [84.33657349, 27.69932469], [84.33949451, 27.70108617], [84.34228018, 27.70190464], [84.34480061, 27.70266479], [84.34791674, 27.70318759], [84.35107986, 27.70242677], [84.35491726, 27.70058944], [84.35848663, 27.69786837], [84.36185508, 27.69455822], [84.36370254, 27.69219523], [84.36686893, 27.68800119], [84.36936231, 27.68638773], [84.36980815, 27.68596772], [84.37112329, 27.6850637], [84.3723436, 27.68397146], [84.3738472, 27.68312976], [84.37593945, 27.68234927], [84.37810272, 27.6816942], [84.37989023, 27.68129142], [84.38165542, 27.68124469], [84.38370401, 27.68146938], [84.38563516, 27.6817572], [84.38737923, 27.68240152], [84.38832226, 27.6828177], [84.38957259, 27.68360996], [84.39079246, 27.68463821], [84.39171256, 27.68522195], [84.39317503, 27.68607642], [84.39437835, 27.68686877], [84.39603138, 27.68832995], [84.39733066, 27.68960366], [84.39898314, 27.69089727], [84.4001622, 27.69145929], [84.40235411, 27.6921859], [84.40365068, 27.69268472], [84.40546651, 27.69355895], [84.40958504, 27.69505234], [84.41064666, 27.6956565], [84.4118263, 27.69634407], [84.41357062, 27.69694615], [84.41559728, 27.69750552], [84.41804869, 27.69831485], [84.42007644, 27.69914636], [84.42184602, 27.70016712], [84.42425279, 27.70158377], [84.42635273, 27.70279191], [84.42795728, 27.70372933], [84.42939675, 27.70458347], [84.43022345, 27.70527196], [84.43069718, 27.70600343], [84.43118211, 27.70755013], [84.43137269, 27.70811494], [84.43170618, 27.70909814], [84.43173391, 27.71016605], [84.43138686, 27.7117168], [84.43089808, 27.71316328], [84.43024517, 27.71477778], [84.42959191, 27.71630852], [84.42915292, 27.7184459], [84.42843162, 27.72030969], [84.42829239, 27.72083367], [84.42810736, 27.72169283], [84.42764185, 27.72307637], [84.4272004, 27.72460647], [84.42666463, 27.72609494], [84.42645815, 27.72749864], [84.4262753, 27.72892322], [84.42609263, 27.73038966], [84.42558016, 27.73183619], [84.42504395, 27.73430732], [84.4245766, 27.7352511], [84.42373344, 27.73644735], [84.42307979, 27.73793617], [84.42277786, 27.73902603], [84.42240508, 27.74007422], [84.42208167, 27.74170863]]}}, {"type": "Feature", "properties": {}, "geometry": {"type": "MultiLineString", "coordinates": [[[84.42208167000007, 27.741708630000062], [84.42260069000002, 27.741937399999983], [84.42340268999993, 27.74227000999997], [84.42462840999997, 27.74253847999995], [84.42618309, 27.742617470000084], [84.42740782000004, 27.74263463000011], [84.42846726999994, 27.74254761000003], [84.4300661100001, 27.74187251000012], [84.43159458000008, 27.741281400000048], [84.43286582000007, 27.741151790000004], [84.43383180000006, 27.741253460000053], [84.43512907000013, 27.74175198000006], [84.43628580000012, 27.74243939000013], [84.43713655999994, 27.743169659999978], [84.43829466000005, 27.74419211000003], [84.43900372000007, 27.744818090000138], [84.43980836000003, 27.745778819999998], [84.44041404000006, 27.746967599999948], [84.44079256999993, 27.74738521000006], [84.44164559000001, 27.748659900000007], [84.44219135000003, 27.74966332000008], [84.44292536, 27.75062428000001], [84.44401276999992, 27.75160503999996], [84.44491023000012, 27.75220943000005], [84.44543037, 27.752689410000016], [84.44606978000013, 27.75354593999998], [84.44654488000003, 27.75452865000011], [84.44666667000013, 27.75492005000001]], [[84.44666667000013, 27.75492005000001], [84.44690286000014, 27.755679230000112], [84.44733043000002, 27.75655737000011], [84.44820629999998, 27.757622539999943], [84.44917503000005, 27.75835233999993], [84.44990683999998, 27.75874785999997], [84.45059114000014, 27.7590388000001], [84.45141717000007, 27.75943397000009], [84.45207677000013, 27.759452770000053], [84.45276003999999, 27.75949242000013], [84.45393489000003, 27.759577650000097], [84.45428819999995, 27.759576489999972], [84.45492418000003, 27.759574399999963], [84.45605461000008, 27.759528800000112], [84.45751377000005, 27.759230799999955], [84.4585482, 27.75876668000012], [84.45936962999997, 27.758051939999973], [84.46016659999998, 27.75712788000004], [84.46162146000012, 27.755824680000046], [84.46300599000006, 27.754605470000058], [84.46408659999997, 27.753931740000098], [84.46563719, 27.75300512000001], [84.46756547000001, 27.752286620000064], [84.46904733000008, 27.751820880000082], [84.47008366, 27.75181737000014], [84.47074376000012, 27.751961730000005], [84.47126415999998, 27.752483480000024], [84.47164563000013, 27.753550149999967], [84.47172087000013, 27.754617900000028], [84.47172555999998, 27.755706820000057], [84.47168543000004, 27.757319440000117], [84.47161963000008, 27.758450460000063], [84.47139796000005, 27.75930989000011], [84.4712952700001, 27.75970804000002], [84.47113530000001, 27.760125669999923], [84.4708294300001, 27.7609242100001], [84.47003486000006, 27.76239278000014], [84.46923948, 27.763672900000017], [84.46855467, 27.764595680000127], [84.46852423999997, 27.764646070000026], [84.46825060000003, 27.765099270000064], [84.46797186000009, 27.76602164000002], [84.46755047000005, 27.766630370000087], [84.46649535000012, 27.767785670000137], [84.46553401, 27.768835969999998], [84.46443114000004, 27.76984485000014], [84.46358629999997, 27.770601560000046], [84.46304348999996, 27.771170810000058], [84.46262472999996, 27.771609959999978], [84.46192180000008, 27.772512770000105], [84.46081831000009, 27.773395970000138], [84.45947934000014, 27.77430091000008], [84.45828081000008, 27.774995939999997], [84.45618687000001, 27.775652030000117], [84.45395426000005, 27.776957719999984], [84.45281081000013, 27.777439710000067], [84.45240210000003, 27.77761198000013], [84.45061320000002, 27.777994779999972], [84.44842620000009, 27.77832869000008], [84.44769588000003, 27.778331050000077], [84.44517549000005, 27.778422980000073], [84.4435251700001, 27.778135090000035], [84.44156922000008, 27.777994779999972], [84.43994455000012, 27.778209369999956], [84.43888516000004, 27.778401210000027], [84.43815744000005, 27.779052690000128], [84.43761829000005, 27.779724510000108], [84.43698573000012, 27.780606030000058], [84.43607075000006, 27.781572220000044], [84.43501434000007, 27.782517890000122], [84.43376926000008, 27.783422270000017], [84.43276175, 27.78482846999998], [84.43194262000009, 27.78621314999998], [84.43088445000012, 27.787991610000063], [84.43020917000001, 27.79002501000008], [84.43007192000005, 27.791072480000082], [84.43005256000004, 27.792140549999942], [84.43001138, 27.79364842000001], [84.43020631000013, 27.795281230000114], [84.43073202000011, 27.797143329999983], [84.43100026000013, 27.799256550000052], [84.4310959, 27.799612260000004], [84.43109805, 27.800156720000132], [84.43107878, 27.80124570999999], [84.43103711000015, 27.80262794999993], [84.43104190999998, 27.803842510000095], [84.4311183800001, 27.80530815000003], [84.4313374300001, 27.80706650000002], [84.43174687000004, 27.809305920000043], [84.4322711000001, 27.810770140000045], [84.43233511000005, 27.81233786000007], [84.43240730000002, 27.812714589999985], [84.43271657000003, 27.81344654999998], [84.43321368000011, 27.814010400000086], [84.43420597999994, 27.81463551000013], [84.43515036999992, 27.815072290000046], [84.43666063, 27.815570100000002], [84.43786295000001, 27.81567100000001], [84.43913715999992, 27.816064830000073], [84.43996350000009, 27.81643916000013], [84.44064966000002, 27.817107069999963], [84.44095747000011, 27.81746209000005], [84.44140869000012, 27.81831922000009], [84.44178891000013, 27.819092810000143], [84.44228755, 27.820012630000065], [84.44276145000015, 27.820639340000014], [84.44311458000004, 27.821073050000052], [84.44342465000011, 27.821453900000108], [84.44418114000001, 27.822016889999986], [84.44472514000006, 27.822496760000035], [84.44517448999994, 27.822872250000046], [84.44564704999999, 27.82316388999999], [84.44649585000002, 27.823244929999987], [84.44736719000002, 27.823074570000074], [84.44823782000009, 27.82273669], [84.44941459000012, 27.822335010000018], [84.45059168, 27.822017060000007], [84.45207456999998, 27.821551499999998], [84.45338827000012, 27.820945779999988], [84.45406147000006, 27.820651269999928], [84.45435279000014, 27.820523820000062], [84.45607192000011, 27.82020404000008], [84.45861525000004, 27.819734899999958], [84.46066439000015, 27.81943491000004], [84.4630213100001, 27.819468900000004], [84.46429287999996, 27.819213339999976], [84.46533010000002, 27.819272680000097], [84.46601524000005, 27.81966824], [84.46627690999998, 27.820232760000124], [84.46635018, 27.82083981000011], [84.46633005000012, 27.821635610000044], [84.46574468, 27.822538060000113], [84.46565461, 27.82352258000003], [84.46568057000002, 27.8240878900001], [84.46577586000012, 27.824317920000112], [84.46624774000009, 27.824441970000066], [84.46688408999995, 27.824439820000066], [84.46799163000014, 27.824394210000037], [84.46921664000007, 27.824264410000126], [84.47053563999992, 27.824071429999947], [84.47197277000004, 27.823940900000025], [84.47369226, 27.823704659999976], [84.47494092000011, 27.82359567000003], [84.47618893999999, 27.82334006000002], [84.47727168000006, 27.823022229999992], [84.47854216000002, 27.822515239999973], [84.47995091000001, 27.821854990000077], [84.48150520000002, 27.82157735000004], [84.48320050000012, 27.821215440000117], [84.48461454000005, 27.821210480000047], [84.48614671000001, 27.82126791999997], [84.4874655700001, 27.821053860000063], [84.48864272999992, 27.82077747000011], [84.49005491000008, 27.820353650000015], [84.49130180000003, 27.81986756999993], [84.49254879, 27.819402440000033], [84.49365635999999, 27.81937755000007], [84.49478964000014, 27.81983419000005], [84.49533399000006, 27.820334820000085], [84.49585399000011, 27.82066800000007], [84.49660855000002, 27.820749050000074], [84.49671881000006, 27.820748659999992], [84.49738628000006, 27.820746250000013], [84.49844574999997, 27.820512070000007], [84.49950542000005, 27.820319790000042], [84.50056508, 27.82012747999994], [84.50228472999999, 27.819953699999985], [84.50343779000002, 27.819572580000056], [84.50502981000011, 27.81914925000001], [84.50559405000007, 27.81885401000011], [84.50641568000003, 27.81815996000006], [84.50702562000004, 27.817550440000048], [84.50796564000001, 27.81698158000006], [84.50911787000013, 27.81643287999998], [84.51052971000007, 27.815966969999977], [84.51227165000012, 27.815541709999934], [84.51359136000008, 27.815536810000083], [84.5150770300001, 27.81574068000009], [84.51684559000006, 27.815964420000114], [84.51769557, 27.816296290000025], [84.51845357000002, 27.817110110000044], [84.51904803000002, 27.81821776000004], [84.51961912000002, 27.819367350000107], [84.52011913000001, 27.820433440000045], [84.52047690000012, 27.82133256000003], [84.52048059000009, 27.82210735000001], [84.52048997999998, 27.82407576000014], [84.52036658000003, 27.82562367000014], [84.52029888999994, 27.826252150000073], [84.52027891000006, 27.82700609000011], [84.52028380000013, 27.828032160000134], [84.52029068999997, 27.8294770600001], [84.5204833300001, 27.830334900000025], [84.52081741000006, 27.831192230000113], [84.52138597000004, 27.831797340000094], [84.52247410999996, 27.83260992999999], [84.52351508999999, 27.833422650000102], [84.52417567000009, 27.833545809999976], [84.52500092000014, 27.83360549000014], [84.52606179999998, 27.833643340000037], [84.52759423999998, 27.83372125000011], [84.52870173999992, 27.83365419000006], [84.52976240999993, 27.833650120000073], [84.53082202000007, 27.83343665000001], [84.53174005, 27.833181810000042], [84.53277714000001, 27.833177810000052], [84.53491767999998, 27.83311554000005], [84.53576631000004, 27.833133180000118], [84.53718084000002, 27.833190500000057], [84.53819536999993, 27.83339595000001], [84.53885627000011, 27.833581840000136], [84.53977609999998, 27.833703890000095], [84.54083593999991, 27.833532240000068], [84.54180075, 27.83321432000008], [84.54314027999999, 27.832413320000057], [84.54412812000004, 27.831990600000097], [84.54547066000009, 27.831796850000046], [84.54690903000005, 27.831916799999988], [84.54848903000004, 27.832078040000056], [84.54995333000005, 27.832658570000092], [84.55092287999997, 27.83328294000006], [84.55204847000005, 27.83393228], [84.55236486000013, 27.834114779999993], [84.55425569000005, 27.83513331000006], [84.55534355000003, 27.835840899999994], [84.55596034000007, 27.836613240000133], [84.55643506000007, 27.837260500000014], [84.55665192000009, 27.838180989999955], [84.55665736999998, 27.839248960000077], [84.55725734000009, 27.84134061000009], [84.55756952999997, 27.842470140000103], [84.5579059800001, 27.843725230000075], [84.55821887000008, 27.84498037999998], [84.5583998300001, 27.846024970000087], [84.55851994000011, 27.84646428000002], [84.55852648000013, 27.847741600000006], [84.55808460000014, 27.848916080000038], [84.55714991000008, 27.85053227999998], [84.55692059000012, 27.851789650000114], [84.55685554000007, 27.852899760000128], [84.55693300000007, 27.854218720000006], [84.55733902000009, 27.85524317000005], [84.55788712999998, 27.856392680000113], [84.55846345000003, 27.857106740000063], [84.55864766000002, 27.857583230000046], [84.55923394000001, 27.85808792000006], [84.56030697, 27.858063290000132], [84.56206509000015, 27.858056140000087], [84.5636186100001, 27.858232310000062], [84.56597195000012, 27.85852690000013], [84.56749352000008, 27.858961300000033], [84.56836221999998, 27.85916051999999], [84.57021570000006, 27.859923540000068], [84.57243474, 27.86072557999995], [84.57355815000005, 27.86159299999997], [84.57493434000003, 27.86276356000002], [84.57630791000003, 27.863427090000016], [84.57738698000009, 27.86453802000011], [84.57759550000014, 27.86510499999997], [84.57760013000001, 27.865977069999985], [84.57760357000006, 27.866626020000012], [84.57733354999993, 27.867377550000015], [84.57690516000002, 27.868413669999995], [84.57675090000004, 27.86946891000008], [84.57675433999998, 27.87011789000013], [84.57705634000013, 27.87109010000006], [84.57749311999999, 27.87163586999992], [84.5783124400001, 27.872376749999944], [84.5795744400001, 27.873507190000055], [84.58067467000001, 27.87427322000002], [84.58188874000007, 27.874977930000057], [84.58367464000008, 27.875842449999993], [84.58488734000002, 27.876283490000105], [84.58530101999997, 27.876768480000067], [84.58576157000005, 27.877476360000003], [84.58626626000006, 27.87790010000009], [84.58715938000006, 27.878362750000008], [84.58795988000008, 27.878582420000043], [84.5887610100001, 27.879001290000076], [84.58892177000007, 27.879085340000074], [84.58958612999999, 27.87946784000013], [84.59022798000012, 27.879911270000036], [84.59102694, 27.87984701000005], [84.59212058000008, 27.879375859999982], [84.59298495999997, 27.87874345000006], [84.59354923000012, 27.87752418000008], [84.59512006000006, 27.876625050000087], [84.59632852000004, 27.876275060000125], [84.59751588000006, 27.87624964000014], [84.59845273999997, 27.876346969999986], [84.59952624999994, 27.876382879999937], [84.60066761000007, 27.87629679000014], [84.60153415000002, 27.87606992000002], [84.60255964999993, 27.875680100000068], [84.60347073000003, 27.875250220000055], [84.6039009100001, 27.874579070000095], [84.60455408000013, 27.873258760000112], [84.60482449000011, 27.872608570000125], [84.60521033000009, 27.872180990000118], [84.60662375999993, 27.87174888000004], [84.60806112000006, 27.871519470000067], [84.6101635500001, 27.871794110000053], [84.61254206000007, 27.872432569999944], [84.61350457999993, 27.873036700000057], [84.61398685000006, 27.873521289999985], [84.61410479000006, 27.87419002000007], [84.61408792000009, 27.875244710000118], [84.61413954000011, 27.87629907000013], [84.61455538000001, 27.877149010000096], [84.6150829, 27.87755227000008], [84.61661558999998, 27.878011880000088], [84.61734960000013, 27.878576440000074], [84.61797089999999, 27.879405170000098], [84.61824794, 27.879931240000076], [84.61882162000006, 27.880415379999988], [84.61971408, 27.88073588000009], [84.62060509000003, 27.88079270999998], [84.62131304000013, 27.880789530000072], [84.62259064, 27.880560670000136], [84.62354747000012, 27.88015073000014], [84.62509641000003, 27.879454190000047], [84.62614399, 27.87894240999998], [84.62664418999998, 27.878554800000074], [84.62714213999999, 27.877781870000092], [84.62743434999999, 27.87696932], [84.62751973000013, 27.87593462000001], [84.62751436000008, 27.875001730000065], [84.62739609000005, 27.87429245000004], [84.62714314000004, 27.87398939999997], [84.62702685000005, 27.87362485], [84.62716060000008, 27.873056390000045], [84.62770338000007, 27.872141290000002], [84.62846980000006, 27.871248880000053], [84.62880975000013, 27.870801159999985], [84.62969702999999, 27.870229260000087], [84.63101632000007, 27.86986080000014], [84.63124734000002, 27.869796269999995], [84.63284925000005, 27.86946605999998], [84.63295792999998, 27.869443660000115], [84.63361953999998, 27.869339209999964], [84.6340519900001, 27.869093870000142], [84.63420723000013, 27.868302209999968], [84.63420451000007, 27.867835770000113], [84.63385727000014, 27.867026130000113], [84.63385043000011, 27.8658498800001], [84.63388866000008, 27.86457203000009], [84.63381236999999, 27.86323385000003], [84.63407812000008, 27.861812990000033], [84.63425734000003, 27.861224030000017], [84.63471117000006, 27.86073519000007], [84.63671595000005, 27.859955300000024], [84.63938643, 27.859780689999923], [84.64132742000004, 27.85981225000006], [84.64269929000005, 27.860130340000126], [84.6435911800001, 27.86036955999998], [84.64416383000008, 27.860671100000104], [84.64505512000011, 27.86080890000011], [84.64624197000006, 27.86072222000007], [84.64715429000006, 27.860555690000126], [84.64838437000003, 27.860063190000062], [84.64929525000008, 27.85965327000008], [84.64974874000012, 27.859123860000125], [84.6498363500001, 27.85849474000014], [84.64913530000001, 27.85750519999999], [84.6476206800001, 27.856214330000114], [84.6469767100001, 27.85542641000012], [84.64669731000009, 27.854515100000015], [84.64694301999998, 27.853601320000053], [84.64723805000006, 27.85329574000002], [84.64828633000013, 27.852966310000113], [84.64949445000008, 27.85263612999995], [84.65084052000003, 27.852467550000085], [84.6521871700001, 27.852400349999982], [84.6541280400001, 27.85243172999992], [84.6557936000001, 27.852241289999995], [84.65741130000015, 27.851686010000037], [84.65841476000003, 27.851498709999987], [84.65927827000007, 27.850825330000077], [84.65944815000012, 27.850642230000005], [84.65984535000013, 27.850214180000137], [84.66027398000006, 27.849360349999984], [84.66081489000004, 27.848201750000044], [84.66128667999999, 27.846942089999914], [84.66164325, 27.84550046000004], [84.66225739000004, 27.844241549999936], [84.66288896000003, 27.842981120000104], [84.66347717000008, 27.842106210000054], [84.66381593, 27.841496189999987], [84.66390488000008, 27.84111043000007], [84.66392303999999, 27.84033967000005], [84.66384972000014, 27.83954908000004], [84.66370684000003, 27.838576289999992], [84.66360724000015, 27.83721797000004], [84.66327928000004, 27.835840439999913], [84.66313639000009, 27.834867670000108], [84.66244591999998, 27.833938060000094], [84.66196050999997, 27.832946639999932], [84.66126882000015, 27.83181422000007], [84.66117323000003, 27.83110486999999], [84.66117414999991, 27.83049724], [84.66112505000012, 27.829929630000095], [84.66107619999997, 27.829402570000013], [84.66111977000003, 27.82905757000003], [84.66132398000008, 27.82885379000004], [84.66212005000006, 27.82838354000006], [84.66293847000009, 27.827832020000073], [84.66359693999999, 27.82726099000007], [84.66432355000012, 27.82662879999998], [84.66493649, 27.826078260000088], [84.66515885000013, 27.825940860000117], [84.66566418000002, 27.825628590000008], [84.66627552000011, 27.82481439999998], [84.6669770200001, 27.823817260000055], [84.66745249000002, 27.823186270000065], [84.6677199400001, 27.82213037000014], [84.66769378000004, 27.82158292000014], [84.66727748000005, 27.820692570000006], [84.66720430000004, 27.819922270000006], [84.66727004, 27.81947578000006], [84.66751850999992, 27.81904867000003], [84.66804146000004, 27.818721649999986], [84.66858674000002, 27.818313400000136], [84.66933621000004, 27.81770132999992], [84.67031538000009, 27.817331540000055], [84.67201164000011, 27.816884800000082], [84.67335673000002, 27.816634899999997], [84.67467811000012, 27.816243110000073], [84.67581775000008, 27.815994160000116], [84.67704845000009, 27.815704210000092], [84.67779870999999, 27.815234080000096], [84.67886522000015, 27.81423509000001], [84.68018566, 27.813701290000097], [84.68091181, 27.813028450000047], [84.68279860000001, 27.811822560000053], [84.68441112, 27.81055717999999], [84.68545951000004, 27.810328900000115], [84.68644086000006, 27.810324020000053], [84.6873768100001, 27.810359920000053], [84.68803876999993, 27.810376899999994], [84.68872342999992, 27.810373490000075], [84.68933861000005, 27.810208180000075], [84.69054548000008, 27.809776260000035], [84.69156865999997, 27.80961653999998], [84.69286899999992, 27.80952891999999], [84.6938714800001, 27.80926022], [84.69530639999999, 27.80880682999998], [84.69765747000002, 27.808365430000038], [84.69785945000001, 27.80832752000009], [84.6998204200001, 27.80805393000003], [84.70162109000006, 27.807700030000035], [84.70305675999998, 27.807368230000122], [84.70399253999994, 27.807383759999993], [84.70495103000007, 27.807378870000093], [84.7061368300001, 27.807230829999924], [84.70718490000013, 27.806961840000042], [84.70759422000009, 27.806736670000078], [84.70788801000003, 27.806288979999977], [84.70813287000004, 27.805334530000096], [84.70808131000007, 27.80442216000006], [84.7080064000001, 27.803428790000112], [84.7081373900001, 27.802515490000076], [84.70849950000002, 27.80204716000003], [84.70933923000007, 27.801333040000088], [84.71004390000007, 27.800903520000077], [84.71127380000007, 27.800532150000095], [84.7121630900001, 27.80042616000003], [84.71284757000006, 27.800402350000013], [84.71373900000009, 27.800620849999973], [84.71458531999997, 27.800920670000096], [84.71561632999999, 27.801544039999953], [84.7160750000001, 27.80188643000008], [84.71671702000015, 27.80234955000003], [84.71717624999991, 27.80292816000008], [84.71765815000003, 27.803331280000066], [84.71804766000008, 27.803572610000117], [84.71877821999999, 27.803609379999955], [84.71943704000012, 27.8031597800001], [84.71995885000013, 27.802690619999964], [84.72084345999997, 27.801874769999984], [84.72163923000005, 27.801424440000005], [84.72213914000002, 27.80109733000012], [84.72275513000005, 27.80107384000013], [84.72378203000011, 27.801068460000067], [84.72471628000011, 27.800860740000076], [84.72553417000012, 27.80030889000011], [84.72563938000013, 27.800280770000086], [84.72630869000005, 27.800102000000038], [84.72726576000002, 27.79989414000005], [84.72774307000009, 27.799607709999975], [84.72824079000009, 27.79895612000007], [84.72868812000013, 27.797594950000075], [84.72909182000012, 27.79653823000001], [84.7298170200001, 27.795784029999993], [84.73093460000001, 27.79569698000006], [84.73100263000015, 27.795635779999998], [84.73196170000011, 27.79573211000013], [84.73278577000008, 27.796113080000055], [84.73427648000012, 27.797220600000003], [84.73656878000008, 27.79874971000004], [84.73728135000005, 27.799516580000102], [84.73735378000003, 27.800104330000067], [84.73711003000011, 27.8011805000001], [84.73716004999994, 27.801829230000124], [84.73753036000005, 27.802597919999926], [84.73806058000002, 27.803386030000127], [84.73865747000008, 27.803910120000012], [84.7393903200001, 27.804291530000114], [84.74028062000008, 27.80432731000002], [84.74158123000001, 27.804300060000116], [84.74312586000013, 27.80430668999992], [84.74474737000014, 27.804480490000117], [84.7460752400001, 27.80510201000004], [84.74674091000009, 27.80566627999997], [84.74854416000005, 27.80571736000013], [84.75036649000003, 27.805220750000046], [84.75062736000012, 27.80516824], [84.75150596999998, 27.804991450000102], [84.75221454000001, 27.80514983000006], [84.7534073700001, 27.80603567999998], [84.75441751, 27.806902230000105], [84.75538174000002, 27.807728470000086], [84.75593516999999, 27.808556930000066], [84.75625959000001, 27.809264970000015], [84.75644891000007, 27.810237410000013], [84.75652677000011, 27.811595779999948], [84.75646689000013, 27.812833220000016], [84.75656507000008, 27.81382642999995], [84.75672792000006, 27.814271710000014], [84.75732510000006, 27.81481601000013], [84.75810402000002, 27.815237609999997], [84.7588365900001, 27.81555810000009], [84.75936393, 27.815899960000138], [84.7598009300001, 27.81638430000004], [84.76028417999993, 27.816949480000062], [84.76119724, 27.817453740000076], [84.76170106000012, 27.81769434000006], [84.76254934000013, 27.81823722000007], [84.76353255999999, 27.818495440000106], [84.76430857000003, 27.818491140000106], [84.76513004000014, 27.818466320000027], [84.76576697000007, 27.818158569999923], [84.76678931999993, 27.817483630000027], [84.76792275000014, 27.81638220000002], [84.76892453000005, 27.81603186000001], [84.76937771000007, 27.815562890000137], [84.76948325000012, 27.814345460000084], [84.76911294000001, 27.81361743000008], [84.76865222000009, 27.813011580000023], [84.76866947000008, 27.81222054999995], [84.76916569000014, 27.811386280000022], [84.77009494000009, 27.81046848000011], [84.77122943999996, 27.809529250000026], [84.77279794000009, 27.808648430000005], [84.77469183000011, 27.808597250000048], [84.77563065999999, 27.80903813000009], [84.77641249000004, 27.809865250000144], [84.77723867999998, 27.81050959999999], [84.77797576000006, 27.81145859999998], [84.77864339000001, 27.81226607000002], [84.77917147000005, 27.812709260000076], [84.78022157000004, 27.8127439000001], [84.78155206000002, 27.813689570000008], [84.78279753000004, 27.813866670000095], [84.78362513000013, 27.813832570000102], [84.78445420000014, 27.814003780000064], [84.78513943000002, 27.814191779999987], [84.7860765900001, 27.81437834999997], [84.78683404000003, 27.814597910000032], [84.78762631000006, 27.814657359999956], [84.78834548000003, 27.81455733000007], [84.78902839000006, 27.814425479999954], [84.78907334000007, 27.81438935], [84.78952937999998, 27.814022830000056], [84.78976057000006, 27.81363769999996], [84.79010007000011, 27.813299920000077], [84.79036859999997, 27.8131064800001], [84.79070865, 27.812848690000067], [84.79119327000012, 27.812670000000026], [84.79182300000002, 27.812650389999988], [84.79245286000008, 27.81264678000008], [84.79331757000006, 27.812769760000094], [84.79434636000008, 27.8131796400001], [84.79519541999997, 27.81362251000013], [84.79591711, 27.813874220000002], [84.79678218999999, 27.814045120000117], [84.79777372999996, 27.814279300000123], [84.79883713000004, 27.81449704000005], [84.80002496000009, 27.814506130000098], [84.80081678000005, 27.814501540000037], [84.80137558000013, 27.814626230000044], [84.80171798000003, 27.814688210000043], [84.80272460999998, 27.81470208000013], [84.80355490000011, 27.81503307000014], [84.80426064000005, 27.815556700000116], [84.80476772000009, 27.815985520000083], [84.80531042000007, 27.816366150000135], [84.8058711600001, 27.816746669999986], [84.80644997000002, 27.817143080000108], [84.80726134000003, 27.817346240000063], [84.80738574000003, 27.817383880000136], [84.8080910700001, 27.817597250000063], [84.80861311000012, 27.81761018000003], [84.80904308999999, 27.817351799999983], [84.80954271999997, 27.81677318000004], [84.80998801000004, 27.81614689000014], [84.81034402, 27.81561708999999], [84.81123764000006, 27.81478027000003], [84.8120990600001, 27.814455370000132], [84.81330134000007, 27.8139845500001], [84.81450491999999, 27.813689580000016], [84.81536703000012, 27.813460620000058], [84.81595647, 27.812865460000012], [84.81627657000007, 27.81235183000001], [84.81657328000006, 27.81111872000008], [84.81685340999996, 27.81007762000013], [84.81741599999998, 27.809030389999975], [84.81821980000007, 27.80822605000003], [84.81936927999999, 27.807931380000014], [84.82044815000006, 27.807813029999977], [84.82178169000008, 27.808060970000042], [84.82268480000005, 27.808503370000096], [84.82297800999993, 27.809205230000032], [84.82283896999996, 27.80986174000003], [84.82225238000012, 27.81082472000014], [84.82190005000012, 27.81183427999997], [84.82199966000002, 27.813113030000068], [84.82231787000006, 27.814742270000067], [84.82263164000005, 27.81577984000012], [84.82330653999998, 27.8169751800001], [84.82363564000002, 27.81766084999998], [84.82421909999994, 27.818305159999966], [84.82503193000008, 27.818700069999977], [84.82616764000005, 27.81894915999999], [84.82719372000008, 27.818975009999974], [84.82825381000004, 27.818744770000137], [84.82969159999999, 27.818480250000107], [84.83046300000001, 27.818155810000064], [84.83142981000009, 27.817494330000045], [84.8324302900001, 27.81652881000008], [84.83328642000004, 27.815516170000137], [84.83414252, 27.814503540000032], [84.83464845000009, 27.813819180000053], [84.83474815, 27.8136843100001], [84.83501367999997, 27.813107010000124], [84.83512190000005, 27.812166909999974], [84.83522486000004, 27.811510620000035], [84.83536025000001, 27.810390410000082], [84.83573143000001, 27.809508610000137], [84.83594445000006, 27.809123530000022], [84.8361470800001, 27.80883266000012], [84.8363360400001, 27.808561460000078], [84.83687171000003, 27.808014510000135], [84.83719328000001, 27.80770872000005], [84.83771046999999, 27.807097899999974], [84.83790423000005, 27.806553010000016], [84.83790127999998, 27.806169230000023], [84.83780837000006, 27.805786000000126], [84.83773247000005, 27.805274720000114], [84.83790626000001, 27.80447408000009], [84.83799331000012, 27.804089760000124], [84.83858456000002, 27.80305472000009], [84.83917245999999, 27.802283560000035], [84.8399788800001, 27.801846899999987], [84.84094928000007, 27.801681069999916], [84.84240739000012, 27.801752140000133], [84.84365165000003, 27.802096370000015], [84.84486083000007, 27.802552730000116], [84.84618018999998, 27.803296250000017], [84.84744312000004, 27.803720280000107], [84.84805914000003, 27.804260220000003], [84.84857041000004, 27.805216560000076], [84.84873959000004, 27.806143029999987], [84.84874667000008, 27.807054510000114], [84.84882496999995, 27.807869580000045], [84.84917134000005, 27.80844316000008], [84.84971256000006, 27.808615739999937], [84.85072015000009, 27.80859355000007], [84.85169009000009, 27.80836369000008], [84.85352281000002, 27.808000570000047], [84.85551583000006, 27.807428539999933], [84.85645054999998, 27.807294810000087], [84.85733194000005, 27.8073871900001], [84.85832226000008, 27.80746098999998], [84.85934707999996, 27.80734267000014], [84.86031636000007, 27.80703280000006], [84.8612289300001, 27.806371470000045], [84.86203261000014, 27.805598870000097], [84.86273935999998, 27.80394732000002], [84.86311080000002, 27.803129440000077], [84.86412758000012, 27.802003689999992], [84.86486229000013, 27.80161528000002], [84.86626413999994, 27.801398610000035], [84.86711070000001, 27.801505249999934], [84.86838940000013, 27.801641130000007], [84.86968658, 27.80184085000002], [84.87080738999998, 27.802489450000053], [84.8720901800001, 27.803136999999992], [84.87283316000008, 27.803787950000014], [84.87283457000007, 27.80396387000002], [84.87263918000002, 27.804284910000092], [84.87233636000002, 27.80467064000004], [84.87189199000005, 27.805361070000117], [84.87146766000012, 27.80630725000009], [84.87147148000008, 27.806786969999962], [84.87201362000013, 27.80707139000009], [84.87374812000013, 27.80793994999999], [84.87596300000007, 27.808117840000136], [84.87713237000003, 27.808078420000072], [84.87743854999997, 27.808108470000093], [84.87900574000014, 27.80843964000013], [84.8798557400001, 27.808961959999976], [84.8803624300001, 27.809310550000077], [84.88072450000004, 27.809580089999997], [84.88155290000003, 27.809654750000107], [84.88234233999998, 27.809361860000024], [84.88275311000001, 27.80897544000004], [84.88328945, 27.808540260000086], [84.88382852000001, 27.808440860000076], [84.88453084000002, 27.808500330000015], [84.8854331600001, 27.80881437000005], [84.88630065000012, 27.809272570000132], [84.88725516000005, 27.809362380000096], [84.88856799000013, 27.809258], [84.88982591000013, 27.809042000000034], [84.89065248000009, 27.808892749999984], [84.89125558000006, 27.808639449999987], [84.89188992999999, 27.808373050000114], [84.89384819000003, 27.807976600000018], [84.89566302000009, 27.807644990000085], [84.89697015000007, 27.806852940000113], [84.89831457000008, 27.806422250000026], [84.8994458200001, 27.8061270500001], [84.90045271000008, 27.806024540000124], [84.90160682999999, 27.806320829999947], [84.9025830000001, 27.806858180000006], [84.90363091000012, 27.807363030000033], [84.90471332999999, 27.807691780000084], [84.90581285000002, 27.80790846000008], [84.90656796999997, 27.80782353000012], [84.90706916000005, 27.807500420000054], [84.90738654, 27.806714770000042], [84.90739828000011, 27.805963100000042], [84.90737445000008, 27.805259620000072], [84.9074411100001, 27.804619530000082], [84.90792306999998, 27.80415262000014], [84.90856912999999, 27.803940469999986], [84.90963035000004, 27.8038855100001], [84.9104600600001, 27.80411992000012], [84.91152609000005, 27.80464059000002], [84.9123208800001, 27.80500317000002], [84.91331043000008, 27.80498064000011], [84.91411584000008, 27.80446357000011], [84.9145066100001, 27.80385331000008], [84.91460963000009, 27.803260960000102], [84.91472794000009, 27.80234866000012], [84.91508298999997, 27.80177062000007], [84.91558265000015, 27.80127157999999], [84.91664076000012, 27.800848799999983], [84.91837937000008, 27.80003768000006], [84.91982514999995, 27.799190210000063], [84.92188393999999, 27.797945160000097], [84.92394903000013, 27.797451620000118], [84.92519270999998, 27.79769915999998], [84.92662116000008, 27.798521129999983], [84.92790759000007, 27.799567920000072], [84.92998508000005, 27.80052943000004], [84.93182951000006, 27.801588420000087], [84.93270084000005, 27.80247804999999], [84.93433214999999, 27.803858279999986], [84.93505570000002, 27.80430111999999], [84.93606769000007, 27.804850319999957], [84.93686135000002, 27.80506880000013], [84.93754357999995, 27.804888270000106], [84.93838722999999, 27.804642690000037], [84.93923264000011, 27.804604950000112], [84.93982850000003, 27.804840770000055], [84.94026394999997, 27.805253559999926], [84.94100884, 27.80608002999992], [84.94251822000001, 27.80790875000008], [84.94318131999995, 27.809679270000004], [84.94349719000002, 27.810828470000047], [84.94377537000008, 27.81129102999995], [84.94408145, 27.811799930000006], [84.94504250000011, 27.812640920000092], [84.94618144000003, 27.81324078], [84.9465801, 27.813557870000125], [84.94713572000012, 27.814347160000068], [84.94782731999999, 27.81523794000003], [84.94844415000006, 27.815809380000076], [84.94933233999996, 27.816538880000053], [84.95010754999998, 27.81669345000006], [84.95096825999997, 27.816335730000105], [84.95152137000008, 27.815788210000107], [84.95193419999998, 27.81556725000013], [84.95239910000004, 27.815318419999983], [84.95326398000003, 27.81544037000009], [84.95389720000003, 27.815819800000043], [84.95480297, 27.816501160000143], [84.95570918000004, 27.817230470000084], [84.95679480000013, 27.817894589999923], [84.95769714, 27.818176189999974], [84.95836296000004, 27.818171570000118], [84.95942248000011, 27.81790835000004], [84.96065925999994, 27.81734006000005], [84.96221839000003, 27.816593619999935], [84.96305697000014, 27.815772210000034], [84.96398511000001, 27.814902200000006], [84.96476404999999, 27.813441570000123], [84.96502465000003, 27.812384330000043], [84.96525093000008, 27.811519220000037], [84.96569472000004, 27.81082851000008], [84.96634179000011, 27.81074398999999], [84.96688290999992, 27.81088414000004], [84.96753470000004, 27.811327329999983], [84.96800610000014, 27.811723810000103], [84.96825832000007, 27.81190264999998], [84.96879716000007, 27.811786929999982], [84.96913606000004, 27.81144874000006], [84.96922193000006, 27.810984399999995], [84.96923380999993, 27.810296680000135], [84.96922528999994, 27.80933727000013], [84.96932148000008, 27.80800933000006], [84.96935152000009, 27.807337480000058], [84.96965246000013, 27.8067756800001], [84.97025870000004, 27.806147760000044], [84.97154826999997, 27.805467060000012], [84.9724969500001, 27.804900690000068], [84.97251151000006, 27.80451681000011], [84.97230931000007, 27.804038489999925], [84.97199830000005, 27.80346500000013], [84.97201017999998, 27.802777310000067], [84.97234878000012, 27.80240710999999], [84.97333427000012, 27.801936430000126], [84.97559696999991, 27.801424740000073], [84.97779209999999, 27.801409219999982], [84.9793646500001, 27.80219764000003], [84.98024659000004, 27.802223380000044], [84.9816342200001, 27.80245337000008], [84.98269897000011, 27.802797600000133], [84.98467448999997, 27.804366670000093], [84.98549024999994, 27.805032480000136], [84.98700558000013, 27.805453409999984], [84.98785362000012, 27.805703219999998], [84.98867937000006, 27.80561038999997], [84.98907409000003, 27.805479660000003], [84.98942977000013, 27.805013369999983], [84.99019695000004, 27.80428827000003], [84.99067726999999, 27.80367717000007], [84.99126842000004, 27.80338506000004], [84.9920237, 27.8033316800001], [84.99294251999999, 27.80345301], [84.99404258000004, 27.803716940000015], [84.99505120000003, 27.80382162000012], [84.99620247000007, 27.803781329999993], [84.99702752999997, 27.80348755], [84.99781674000008, 27.80320999999998], [84.99869447000003, 27.802771880000137], [85.00036208999995, 27.802136180000105], [85.00114013000007, 27.802027409999994], [85.00120676000006, 27.802018120000128], [85.00205375000013, 27.80215586999998], [85.00304773999994, 27.80262841000001], [85.00442272000004, 27.803433970000015], [85.00644898000002, 27.80461852999997], [85.00733421000007, 27.80499587999992], [85.00906999, 27.805894710000075], [85.0104582400001, 27.806601010000065], [85.0116111700001, 27.806736500000056], [85.01251129000013, 27.806777870000133], [85.01332352000003, 27.807043750000105], [85.01383135000015, 27.807471799999973], [85.01403434000002, 27.80801400000007], [85.01387982000006, 27.808814710000092], [85.01350594000002, 27.809249200000124], [85.01271925999993, 27.809798670000134], [85.01239890000011, 27.81018482000013], [85.01210251000009, 27.811210410000058], [85.01209026999993, 27.811834139999974], [85.01224076999995, 27.812536660000035], [85.01271618000004, 27.81334871000007], [85.01333407999999, 27.813999830000114], [85.01397148000001, 27.814810670000043], [85.01466421000009, 27.81576505999999], [85.01484684000013, 27.816051540000046], [85.01538027000004, 27.81684598000004], [85.01564262000005, 27.817963430000134], [85.01604774000003, 27.81895189000005], [85.01638222999998, 27.820084789999953], [85.0166991800001, 27.821265779999976], [85.01695933999991, 27.82214339000012], [85.01723763000007, 27.823036829999978], [85.01762194000003, 27.823721630000136], [85.01784715000002, 27.824711399999956], [85.01788941999996, 27.825382720000107], [85.01789255000006, 27.82571852000001], [85.01762965, 27.826279010000007], [85.01763502000006, 27.826854670000046], [85.01778319000005, 27.827301300000045], [85.0183118000001, 27.828016990000094], [85.01894766999999, 27.82865195000005], [85.01974655999999, 27.82939763000013], [85.02067387, 27.830398210000112], [85.02143873, 27.83135200999999], [85.02205739000004, 27.83206703000002], [85.02267560000001, 27.832734080000137], [85.02282842000005, 27.833084069999984], [85.02293314000002, 27.833323830000097], [85.02293884, 27.83393145000008], [85.02283909000005, 27.834811690000095], [85.02241627000006, 27.835790280000026], [85.02220612000008, 27.836415490000093], [85.02197724000001, 27.836960870000098], [85.02191085999999, 27.837566670000115], [85.02122013000007, 27.838771109999925], [85.02063679000008, 27.839910800000098], [85.02030094000003, 27.84056892000001], [85.01989371000008, 27.84129152000014], [85.01966703, 27.842076740000095], [85.01965455999999, 27.84266851000001], [85.0198425100001, 27.84351465000003], [85.02004558000004, 27.844056830000113], [85.02075789999998, 27.84515495000005], [85.02168261999992, 27.845867690000034], [85.02213562999992, 27.84618417000013], [85.02300797999999, 27.846399089999977], [85.02408678000012, 27.846263160000092], [85.02502460000005, 27.84644809000008], [85.02608913000006, 27.846712020000098], [85.02750115000015, 27.847549040000047], [85.02866266999996, 27.848547810000127], [85.02953757000006, 27.84969264999995], [85.02985412999999, 27.85080965000003], [85.03013216000005, 27.85165509000001], [85.03066190000004, 27.852466670000013], [85.03133626000005, 27.853341130000047], [85.03200745999999, 27.853879800000016], [85.03261979000001, 27.85390719999998], [85.03362771000008, 27.853883660000008], [85.03468917999999, 27.853811740000083], [85.03625421999999, 27.85368805000013], [85.03747966999998, 27.853822780000087], [85.03841955000007, 27.854215490000115], [85.03918094000005, 27.854769420000082], [85.0398130000001, 27.855283920000034], [85.04030316000001, 27.85571198000008], [85.04079271, 27.856076080000037], [85.0413713800001, 27.856343550000133], [85.04205665000012, 27.85646631999998], [85.04297445000003, 27.856427400000143], [85.04383622000012, 27.856181030000016], [85.04446259000008, 27.85579249], [85.04510374, 27.855068040000106], [85.04547578000006, 27.854441590000135], [85.04620740000001, 27.85376442000006], [85.04713963000006, 27.853357569999957], [85.04836154000009, 27.853124410000078], [85.0497465200001, 27.85300196000003], [85.05101045000004, 27.853392100000008], [85.05225747000003, 27.853894309999987], [85.0532897, 27.85452607000002], [85.05430675000008, 27.855445770000074], [85.05566616999994, 27.856394820000105], [85.05724641999996, 27.857837879999977], [85.05846556000012, 27.85917176999999], [85.05913599000002, 27.85961437000003], [85.05991334999999, 27.85994421999999], [85.06040098000005, 27.86010037000011], [85.06120923000014, 27.860029100000077], [85.06156770000013, 27.859866440000133], [85.06226605, 27.859477290000086], [85.06314271000002, 27.858910850000086], [85.06357780999997, 27.858517600000084], [85.0637316000001, 27.858378610000102], [85.06471107999994, 27.85728366000012], [85.06572967000005, 27.856508240000096], [85.06719765000003, 27.855665379999948], [85.06805700000007, 27.855179000000078], [85.06923617000007, 27.854258400000106], [85.07045569000007, 27.853785210000012], [85.07160333000002, 27.853328540000064], [85.0723578200001, 27.85316277000004], [85.07331091000009, 27.853059420000022], [85.0740129400001, 27.853053960000068], [85.07502067999997, 27.85301412000001], [85.07572461000012, 27.853200519999973], [85.07650306000005, 27.85364220000008], [85.07732037, 27.85437139000004], [85.07788536000004, 27.855070559999945], [85.07837679, 27.855610410000054], [85.0791721600001, 27.855939990000138], [85.07974902000007, 27.856015429999957], [85.08073875000002, 27.85597573000007], [85.08126064000004, 27.855955629999983], [85.08309794000002, 27.85612113000002], [85.0841777, 27.856080660000032], [85.08523930000013, 27.856024330000025], [85.08632190999998, 27.85627166000006], [85.08742271000011, 27.856534849999946], [85.0881634800001, 27.85680084000012], [85.08859887000006, 27.857133210000086], [85.08873144, 27.85778779000009], [85.08873640000007, 27.858283450000044], [85.0889406600001, 27.858905489999984], [85.08925417000012, 27.859654579999983], [85.08954636999994, 27.8600680400001], [85.09007099000002, 27.86031973000013], [85.09129672, 27.86046994999998], [85.09282576000004, 27.860345909999978], [85.09496527999994, 27.860057080000104], [85.09701235000006, 27.85952914000012], [85.09898671999997, 27.858937760000003], [85.1007644, 27.858475829999975], [85.10198588999998, 27.858210230000054], [85.10256180000005, 27.85818964000009], [85.10399774000001, 27.858164090000116], [85.10506177000013, 27.858347460000005], [85.10580112999997, 27.85846945999998], [85.10621695999993, 27.858642040000063], [85.1065429300001, 27.858831300000077], [85.10689119000011, 27.859058720000064], [85.10724396, 27.859443180000085], [85.10750948999993, 27.859828349999987], [85.10793196000009, 27.860212240000124], [85.10851094000003, 27.86054838000007], [85.10909072000004, 27.86096200999998], [85.10944157000012, 27.861160560000087], [85.11012583000007, 27.861557840000103], [85.11079772000005, 27.862450940000087], [85.11113271000005, 27.86280455000002], [85.11141572000002, 27.863189540000064], [85.11162910000013, 27.863590610000074], [85.11187848999998, 27.864099800000076], [85.11214626000009, 27.86470183], [85.11231815000008, 27.86552050000006], [85.11237633999991, 27.866093209999974], [85.11262796, 27.866819290000024], [85.11296756000002, 27.867622089999998], [85.11348031999995, 27.868299600000114], [85.11408027000004, 27.868976379999992], [85.11497660999999, 27.869635259999995], [85.11610045000003, 27.87036975000001], [85.11680257000006, 27.870797830000072], [85.11809800000015, 27.87125206999997], [85.11939584000004, 27.871938650000118], [85.12046776000011, 27.87270452000007], [85.12138095, 27.87330127000007], [85.12230855999996, 27.87360355000004], [85.12374296000002, 27.87399466000005], [85.12507254000008, 27.874371080000117], [85.12580033000006, 27.874967840000124], [85.12594371, 27.87533846000008], [85.12601813999999, 27.875787100000025], [85.12600788000003, 27.876484300000016], [85.12571875000009, 27.877199259999998], [85.12556913000014, 27.8779130800001], [85.12557713000007, 27.878687600000035], [85.12574293000011, 27.87953827000007], [85.12597674000011, 27.880217970000047], [85.12634976000004, 27.88086557000014], [85.12675623000013, 27.881373460000077], [85.12725140000003, 27.882020050000108], [85.12777982000006, 27.882511460000046], [85.12850142000008, 27.88312521000006], [85.12932881, 27.88384652000002], [85.13033975999997, 27.884626879999928], [85.13074303000013, 27.884824939999987], [85.13202337000001, 27.885480590000043], [85.13363916000009, 27.88652069999995], [85.13560661000002, 27.88782128999992], [85.13671334000009, 27.88855574000013], [85.13720925000007, 27.88926424999994], [85.13731925000013, 27.8897745700001], [85.13729260000008, 27.89056484000008], [85.13696922999992, 27.89134207000012], [85.13661197000005, 27.892212519999987], [85.13627038000004, 27.89291247], [85.1359641300001, 27.89365856000012], [85.13583165999995, 27.894341280000106], [85.13582084000012, 27.894976510000106], [85.13589908000006, 27.895438990000002], [85.13609906000005, 27.896211909999977], [85.13652696999992, 27.89709138000012], [85.13679805999999, 27.897987639999997], [85.13680873999999, 27.899010000000033], [85.13693976000002, 27.899860930000102], [85.13716980000004, 27.900168839999992], [85.1378728300001, 27.900658790000023], [85.1391693700001, 27.90117477000007], [85.13974721000011, 27.90137136000004], [85.14034540000006, 27.901846650000095], [85.14064636000006, 27.902262430000007], [85.1408076300001, 27.90266386000002], [85.14081331000006, 27.903206019999914], [85.14080591999993, 27.904166540000006], [85.14063347000007, 27.904863709999972], [85.13985827000005, 27.905815079999968], [85.13917611000011, 27.907323380000093], [85.13892950000013, 27.908766090000086], [85.13847253, 27.910117630000002], [85.1373531800001, 27.91153657999996], [85.13619824000011, 27.912893840000038], [85.1354016300001, 27.913473590000024], [85.13456784000005, 27.913836770000046], [85.13420530000008, 27.914211550000005], [85.13415764000001, 27.914661180000053], [85.13411632999998, 27.91497041000008], [85.13429257999996, 27.91513937000002], [85.13462734999996, 27.91544644000004], [85.13501394999997, 27.91570660000002], [85.13578511000003, 27.91602555999998], [85.13673040000009, 27.916312110000035], [85.13806022, 27.916657410000028], [85.13853000000012, 27.916762269999992], [85.13959943999998, 27.917001000000027], [85.14047449000009, 27.917241620000027], [85.14110785000008, 27.91773208000012], [85.14181474999992, 27.918578249999996], [85.14220708000005, 27.91938053000007], [85.14268277999997, 27.91981034000014], [85.14328093000012, 27.920270130000006], [85.14370136000008, 27.920421540000063], [85.14487241, 27.920597710000095], [85.14560609000011, 27.920669079999925], [85.14644480000004, 27.92077052999997], [85.14728402000003, 27.92091843999998], [85.14835252, 27.92129682000001], [85.14928208999999, 27.921738329999982], [85.14979124000001, 27.922028420000004], [85.15047209000005, 27.922053710000114], [85.15087654000007, 27.92234467000003], [85.15121056000004, 27.92257423000001], [85.15135555000012, 27.923084229999915], [85.15152826000002, 27.923668599999985], [85.15134302000013, 27.924305290000063], [85.15127832999997, 27.92478607000004], [85.15126743999991, 27.92540581000003], [85.15106526000005, 27.92608912000003], [85.15075755000004, 27.92669583999998], [85.15031072, 27.927350220000108], [85.1497582400001, 27.927912500000105], [85.14925512000008, 27.928195530000096], [85.14885622000008, 27.928431240000066], [85.14880794999999, 27.92881892000014], [85.14884581000013, 27.929097440000078], [85.14927216000007, 27.929806489999976], [85.14969983000009, 27.930639439999936], [85.15001953000007, 27.93116348999996], [85.15011300000015, 27.931751350000127], [85.1501187400001, 27.932293500000014], [85.15012645000002, 27.933021530000076], [85.15030524000008, 27.933422800000017], [85.15063962000005, 27.93368334000013], [85.15132136000011, 27.93378609000007], [85.15172059999992, 27.933581360000005], [85.15223854999999, 27.93305032000012], [85.15304888000009, 27.932114070000125], [85.15355219000014, 27.93184653000003], [85.15430158999999, 27.931747289999976], [85.15470492999998, 27.931929809999986], [85.15512854000002, 27.93237550000009], [85.15534256000012, 27.932807460000106], [85.15556378999997, 27.93325311000001], [85.15563870000011, 27.93373270000012], [85.15584055000011, 27.934660459999975], [85.15627209000013, 27.935849659999917], [85.15680983000004, 27.937177389999988], [85.15741392000012, 27.938179240000125], [85.15790935000007, 27.9388102100001], [85.15845682000008, 27.93940974999998], [85.15923580000003, 27.940441100000044], [85.15977623000015, 27.94201664000002], [85.15980031000004, 27.94263609000012], [85.16042697, 27.9438077800001], [85.16057089999998, 27.944209350000108], [85.16087340000001, 27.944748989999994], [85.1611923700001, 27.945195529999978], [85.16154524999996, 27.94554885000008], [85.16249550000009, 27.94626891000013], [85.16292135000015, 27.946915950000005], [85.16311981000007, 27.947518419999938], [85.16314141000004, 27.94790551], [85.16295539999993, 27.9484647700001], [85.16285833000006, 27.94917817999999], [85.16262325999998, 27.950047670000004], [85.16263056000008, 27.950729230000036], [85.16265713999996, 27.95158101000004], [85.16235634999992, 27.952695850000055], [85.16217827000014, 27.953998610000042], [85.16236095, 27.95475614000003], [85.16278501000005, 27.955232790000025], [85.16345228, 27.955598920000114], [85.16399537000001, 27.95578022000001], [85.16507941000003, 27.95594146000002], [85.16593834000003, 27.956275000000062], [85.16651852000007, 27.956657360000122], [85.16681811000001, 27.956918169999994], [85.16736567999999, 27.957517660000065], [85.16775622999995, 27.95811851000002], [85.16802539000003, 27.958797820000086], [85.16829538000002, 27.95955459999999], [85.16859928000008, 27.96021816000001], [85.16893611000006, 27.96069549000009], [85.1694322300001, 27.961372890000007], [85.1698742800001, 27.961895830000117], [85.17031552999998, 27.962341330000015], [85.17084423000006, 27.96280156000006], [85.17131684000009, 27.963136490000068], [85.17229738000003, 27.963406990000067], [85.1739280000001, 27.964059190000057], [85.17552222, 27.964572290000035], [85.17646955000009, 27.96499795000011], [85.1768755700001, 27.96541272000013], [85.17721196000002, 27.965843600000085], [85.17744361000001, 27.96627537000012], [85.1775904700001, 27.966940220000026], [85.17777281000008, 27.967651240000066], [85.17800527999998, 27.968160450000084], [85.17846505, 27.968698690000053], [85.17876550999995, 27.969036909999943], [85.17925665999991, 27.969249590000004], [85.17973254000003, 27.969663780000133], [85.18050319000002, 27.96988951999998], [85.18109943999997, 27.970132260000014], [85.18179889999993, 27.970234689999927], [85.18295259000001, 27.970364200000006], [85.18356577999998, 27.97056032000006], [85.18418200999997, 27.971035210000082], [85.18457555000003, 27.971899320000034], [85.18454578000006, 27.97227054000001], [85.18454798000005, 27.97247190000013], [85.18414697000009, 27.97308938000009], [85.18354542000003, 27.973394510000105], [85.18314900000013, 27.973862640000107], [85.18270337000001, 27.97462552999997], [85.18227925000008, 27.975760010000045], [85.1820631, 27.976753280000025], [85.18187917, 27.97749845000004], [85.18181576000012, 27.97808763000012], [85.18151111999993, 27.978973260000032], [85.18115445000012, 27.979890280000006], [85.18065879000011, 27.98087046000012], [85.18041271999999, 27.981580430000065], [85.18038046999999, 27.982507200000043], [85.18050383000008, 27.983470160000138], [85.18062764000001, 27.984470730000112], [85.18060732999993, 27.98519705000001], [85.18032450999999, 27.98643897000011], [85.18016906000008, 27.98771734999997], [85.18024535, 27.988242530000093], [85.18053208000015, 27.98865324999997], [85.18073102000005, 27.98877673000004], [85.18104552, 27.98889698000005], [85.1820237500001, 27.989301719999958], [85.1826345, 27.98965957000013], [85.18297823, 27.990119839999977], [85.18294231000004, 27.990708600000062], [85.18272239999999, 27.991248859999985], [85.18239165, 27.991977860000077], [85.18227271000006, 27.992717560000017], [85.18230542000015, 27.993130440000073], [85.18269233999996, 27.99366548000006], [85.18391693000007, 27.99465656000001], [85.18525675000006, 27.99585944000006], [85.18587452000003, 27.996329150000008], [85.18617582000007, 27.996777269999995], [85.18619663000004, 27.997390580000115], [85.18597550000004, 27.997818160000122], [85.18536111999998, 27.99842442000005], [85.18494760000004, 27.999329430000103], [85.18474262000001, 27.999944680000056], [85.18441211999999, 28.000698730000067], [85.18408120999999, 28.001415220000013], [85.18397488000005, 28.002017090000095], [85.18413943999997, 28.00286704000007], [85.18464696000007, 28.004102170000124], [85.18438266000004, 28.004927930000065], [85.18396883000008, 28.005807900000036], [85.18364092000013, 28.00679979000006], [85.18366857000012, 28.0080390600001], [85.18381190000008, 28.009527679999962], [85.18383711000001, 28.01054160000001], [85.18382847000004, 28.011042470000064], [85.18433835000013, 28.012487980000117], [85.18486238000014, 28.013935770000046], [85.1849498900001, 28.014324670000065], [85.1854805800001, 28.015427629999976], [85.18635139000003, 28.0165621000001], [85.18702257999996, 28.017428620000032], [85.18719325000006, 28.01831536000003], [85.18716742000004, 28.019219640000074], [85.18706857000006, 28.01938014000001], [85.18683355000013, 28.019761790000132], [85.18628460000002, 28.02025821000001], [85.18589796999998, 28.02088012000013], [85.18567489000003, 28.021738530000107], [85.18568775, 28.02291211000005], [85.18605704000004, 28.023971589999917], [85.18678459, 28.02491519000006], [85.18721849000002, 28.025339680000002], [85.18813383000008, 28.025633120000123], [85.18917364999999, 28.02586204000005], [85.19069510000008, 28.025975750000043], [85.19137728000004, 28.026207750000026], [85.19226421000008, 28.027167570000074], [85.19301508000001, 28.028762980000067], [85.19378875000007, 28.030802270000038], [85.1943752200001, 28.032081910000045], [85.19422741999995, 28.03327274000003], [85.19405575000013, 28.033924510000134], [85.19384880000007, 28.035431310000092], [85.19379267000005, 28.03682754999994], [85.19385049000005, 28.03882549000008], [85.19404334000001, 28.040092650000133], [85.19491481, 28.04125875999995], [85.19770848000002, 28.043169439999986], [85.1987890200001, 28.043826170000102], [85.20009678999992, 28.044893130000105], [85.20107286000007, 28.045804540000006], [85.20190550000001, 28.04668544000009], [85.20223732000011, 28.04757074000014], [85.20242870999999, 28.048695170000087], [85.20270548999997, 28.04945405000001], [85.20348273000013, 28.050176809999925], [85.20573540000004, 28.051663820000044], [85.20698255000002, 28.052810690000115], [85.20787323000013, 28.05407170000001], [85.20812860000012, 28.054513559999975], [85.20846007000006, 28.054936649999945], [85.2085316400001, 28.056537940000112], [85.20861981999991, 28.058078640000076], [85.20865106000002, 28.05921732000013], [85.20824745000004, 28.05991873000005], [85.20809052999999, 28.060284929999966], [85.20818955000004, 28.061140510000087], [85.20807177000006, 28.06180770000003], [85.2076044000001, 28.063207530000057], [85.20709798999997, 28.064322220000065], [85.2065998000001, 28.064895710000087], [85.20612509000011, 28.06564532999994], [85.20547343999999, 28.066570969999987], [85.20533776000013, 28.067238309999937], [85.20539815000001, 28.06784047000002], [85.20563605000012, 28.06831421999999], [85.20612312999992, 28.06867471999999], [85.20738838, 28.069821419999982], [85.20815361000007, 28.07105181000003], [85.20817492000009, 28.071131580000042], [85.20837769000013, 28.071890450000126], [85.20864449000004, 28.073347260000048], [85.20938830000011, 28.074260620000132], [85.20987386000013, 28.074478380000016], [85.21119149000009, 28.074909890000015], [85.21280987000006, 28.075625200000047], [85.21461201000011, 28.07676705], [85.21666912999996, 28.07830318000009], [85.21808040000002, 28.079686390000006], [85.21903978, 28.08066120000001], [85.21979785000002, 28.081241320000004], [85.2216150000001, 28.082113330000084], [85.22364613000013, 28.082919989999994], [85.22481434999997, 28.083369510000068], [85.22594537000009, 28.083692489999976], [85.22668418000012, 28.08414583000001], [85.22729521000008, 28.084676770000044], [85.2279505300001, 28.08565424000011], [85.22831760000008, 28.086459830000138], [85.22898792000012, 28.087183429999982], [85.23010525000007, 28.08787127000005], [85.23144179999997, 28.088953640000057], [85.23234461000004, 28.08965926000002], [85.23342365999997, 28.090125380000018], [85.23546911000011, 28.090598630000102], [85.23715727000001, 28.091122680000126], [85.23937845000012, 28.0913088100001], [85.24073943000008, 28.091391680000015], [85.24180007000007, 28.091810329999987], [85.24275502000006, 28.092372650000016], [85.24339993000012, 28.09243022999999], [85.24434828000005, 28.09242162999999], [85.24586703999995, 28.09221752999997], [85.24688571000007, 28.09209725000011], [85.24786853, 28.092130480000037], [85.24906740000011, 28.092119570000023], [85.25053869999999, 28.092455100000052], [85.2519569000001, 28.092838669999992], [85.25398884000015, 28.09367657000007], [85.2555725200001, 28.09443923000009], [85.25650726999999, 28.094795480000073], [85.25747576000003, 28.094976910000014], [85.25892718, 28.095138080000027], [85.26048899000011, 28.095551949999958], [85.26135197000008, 28.09589295000012], [85.26158793000008, 28.096176270000115], [85.26168129999996, 28.09650847000006], [85.26173924, 28.09687274999999], [85.26195696000008, 28.09712451000007], [85.26280355000011, 28.097592510000084], [85.26343486000013, 28.098014930000033], [85.26393509000013, 28.09847946000008], [85.26435650000002, 28.09931617000001], [85.26481335999995, 28.10012082999998], [85.26543172999999, 28.100683230000016], [85.26617667999994, 28.10134093000005], [85.26620265999998, 28.10138580000006], [85.26674654000004, 28.101935710000078], [85.26708262999995, 28.102232640000125], [85.26721093000009, 28.10232394000002], [85.26731656999993, 28.102386109999998], [85.26755378000007, 28.10243808000007], [85.26843734999994, 28.102560750000066], [85.26863200000008, 28.102617589999966], [85.26872227000007, 28.102668639999933], [85.26971885000012, 28.103532420000022], [85.2709592000001, 28.104193160000136], [85.27119302000006, 28.10476622999994], [85.27205799000006, 28.105890420000094], [85.27259246000006, 28.1066188100001], [85.27290350000004, 28.106891140000073], [85.27437545999993, 28.107391790000122], [85.27500680000014, 28.107670160000055], [85.27559162000006, 28.108420399999943], [85.27623874000011, 28.109036979999985], [85.27678208999993, 28.109426700000085], [85.27776746000012, 28.110890570000095], [85.27895164000006, 28.111297040000125], [85.28156829, 28.11312442999997], [85.28224286000005, 28.114223480000135], [85.28250128000013, 28.11445114999998], [85.28302137999998, 28.11566443999999], [85.28346189000001, 28.116122730000086], [85.28472940000006, 28.11701320000003], [85.28578972000008, 28.117650670000046], [85.28710766000006, 28.118290220000006], [85.28757288999998, 28.118470830000035], [85.28819555000001, 28.11894498999999], [85.28858154000011, 28.119549040000095], [85.28899983000008, 28.12010022000004], [85.28995677000006, 28.12078908000001], [85.29056871000006, 28.121068790000038], [85.29107748000007, 28.12169840000007], [85.29149577000004, 28.122249570000065], [85.29196532999998, 28.122594069999934], [85.29290041000007, 28.12295004000009], [85.29360530999998, 28.12351435000005], [85.29426239999998, 28.124570780000056], [85.29503910000011, 28.12515028000007], [85.29601116000003, 28.125601020000033], [85.29652536999998, 28.125681699999973], [85.29680984000004, 28.125796320000063], [85.29807781, 28.126867110000035], [85.29836281999997, 28.127186980000033], [85.2987252900001, 28.127598599999942], [85.29903537000001, 28.1277806600001], [85.29906127999999, 28.127870630000075], [85.30058835000006, 28.12921638000006], [85.30075944999999, 28.129693620000126], [85.30082290999991, 28.130501879999997], [85.30081477999994, 28.131310819999953], [85.30096621000007, 28.131991389999996], [85.30134806000001, 28.13247941000003], [85.30214006, 28.13283669000009], [85.30282542000003, 28.13325838000003], [85.30329947000001, 28.133967580000046], [85.30386647000006, 28.134961370000042], [85.30456817999999, 28.136731030000078], [85.30517369, 28.137946479999925], [85.30567083000011, 28.138653379999994], [85.30648618000009, 28.139454470000032], [85.30742743999997, 28.140301939999972], [85.30879910999994, 28.141208730000017], [85.30962969000012, 28.141787609999994], [85.31006029000002, 28.141862789999948], [85.3106858700001, 28.141777509999997], [85.31148737000001, 28.141436790000057], [85.31209738000001, 28.14154195000009], [85.3126567700001, 28.14190137999998], [85.31304158999995, 28.142627259999983], [85.31310440000004, 28.143372100000136], [85.31320492999998, 28.14427512000009], [85.31358763000003, 28.14482656000007], [85.31411144000003, 28.145202190000077], [85.31506470000005, 28.145557829999973], [85.31598100000002, 28.145818640000073], [85.31662857000009, 28.14606620000012], [85.31717046, 28.146457460000022], [85.31767659000013, 28.146849110000062], [85.31827376000001, 28.147366750000117], [85.31874252000006, 28.14763185999999], [85.31931794000008, 28.1478324900001], [85.31946213000009, 28.147910410000122], [85.31990866000007, 28.148204500000134], [85.32111824000015, 28.149017550000053], [85.32218500999994, 28.14986371000009], [85.32364390000004, 28.150563310000052], [85.32549803, 28.151370090000057], [85.32643444000001, 28.15180511999995], [85.32717746000003, 28.152527470000052], [85.3277255000001, 28.1534103300001], [85.32891985000015, 28.15442963000004], [85.33004399000009, 28.15556065000004], [85.33168674000012, 28.156639030000065], [85.33232711, 28.156916290000083], [85.33353825, 28.157840239999985], [85.33411765999995, 28.158357980000005], [85.33541324000004, 28.158868729999995], [85.33649399000012, 28.159381569999994], [85.33739689000004, 28.1599913], [85.33770796000005, 28.160527500000114], [85.3377366900001, 28.16139950000013], [85.33777705000006, 28.16176388000008], [85.33808832000005, 28.1623159400001], [85.33901073999999, 28.163052339999922], [85.33998649000006, 28.16375649999992], [85.34085264999999, 28.16428725999998], [85.34111772000006, 28.164352280000003], [85.3416666666667, 28.164444444444484]], [[84.44553793, 27.75942846999999], [84.44545257000004, 27.75923732000001], [84.44547430000006, 27.759015920000138], [84.44563228999999, 27.758914829999924], [84.44588033000008, 27.758692710000048], [84.44587910000001, 27.758390930000132], [84.44562909000007, 27.75813019000003], [84.44531131000008, 27.757889790000036], [84.44530967999998, 27.757487420000132], [84.44530795999998, 27.757064909999997], [84.44512593000002, 27.756824069999993], [84.44510169, 27.756421780000096], [84.4453718200001, 27.75607889000014], [84.44598127000012, 27.755694639999945], [84.44622928000001, 27.755472530000077], [84.44666667000013, 27.75492005000001]]]}}]}