{"type":"FeatureCollection", "features": [
{"type":"Feature","geometry":{"type":"Polygon","coordinates":[[[85.48822325559885,28.33745521118911],[85.48961373698444,28.33903310949046],[85.4879892205262,28.339729392497535],[85.48201006531232,28.34149332365805],[85.47926450615212,28.339409179889817],[85.47513844628227,28.33860419043108],[85.46996198006136,28.337162303797346],[85.4652477968484,28.338671824844884],[85.46065240778242,28.338932534708803],[85.45806595577936,28.339840807707127],[85.45623263652703,28.340121025664853],[85.4541836283718,28.339092184157042],[85.45162356967201,28.338242760095376],[85.44948070107354,28.337503888793456],[85.44740075174334,28.336553987976252],[85.44651847454804,28.337576038703236],[85.44525240807221,28.338249676781267],[85.44359754489088,28.33891886591302],[85.44159730247358,28.338657850279645],[85.43948866207218,28.337628110349076],[85.43785468024936,28.336868416144554],[85.43454447184996,28.336195330250334],[85.43279054115062,28.335460663279076],[85.43151657862732,28.334668804821515],[85.4300094596689,28.33334905871214],[85.42893702352491,28.332130777713214],[85.42762989490375,28.332043361811763],[85.42538902358459,28.33242753060605],[85.42269016082233,28.332444588047377],[85.42049542472414,28.331550922736913],[85.41781945060727,28.33002455828679],[85.41636600498722,28.328777645571932],[85.41443641151129,28.328393453395194],[85.41420800529531,28.329090237324593],[85.41328104348541,28.32910357786793],[85.41216474380792,28.329018234004398],[85.41184272716018,28.328676825275288],[85.4122651423225,28.32776523647653],[85.41227876345427,28.32684888936474],[85.41183483111263,28.325541319176615],[85.4110782350725,28.323265363505755],[85.41104381621922,28.321914321888507],[85.41173227152719,28.31994338388015],[85.41192640817722,28.318701918358922],[85.41273860300417,28.31640159195996],[85.41244936574567,28.315598688928432],[85.41248072510541,28.315177075961316],[85.41198380920551,28.31315023879255],[85.41130301881931,28.3116764945746],[85.4106793623627,28.309737015750745],[85.40884906033587,28.307938938231512],[85.40711355674526,28.3065195031726],[85.40602613519805,28.30539633896989],[85.4048430158925,28.303961117211827],[85.40285176129981,28.30287178280657],[85.40092518864658,28.302493876890942],[85.40003825386239,28.30139522550925],[85.39837724291547,28.30004318564456],[85.39661026125466,28.299067441009605],[85.39539691933244,28.29798713669702],[85.39541157828178,28.29701009703842],[85.39503849363167,28.29511791715826],[85.39420185343286,28.29401982155759],[85.39279890474569,28.292204356545845],[85.39117159319457,28.2897622718115],[85.38995126443938,28.2888987931448],[85.38829831141798,28.287949332096083],[85.38710268973739,28.286964821769132],[85.38563338277444,28.285956849928738],[85.3844813413409,28.285114347948912],[85.38253440443934,28.283979393634205],[85.38129474205877,28.282893230238447],[85.38004959831039,28.282170888475775],[85.37928642103161,28.281292524230615],[85.37830795684681,28.281058526929524],[85.37754771765309,28.281494260152005],[85.37730712472413,28.28230006079919],[85.37647223820332,28.28313923079091],[85.37575212226267,28.283939326139016],[85.374762284352,28.284453177172473],[85.37352126309585,28.28496402986613],[85.37209140669314,28.285876948762255],[85.37066860547186,28.286324957730667],[85.36974599458205,28.286920438427597],[85.36835278645194,28.28692401503132],[85.36703055011986,28.286766693927888],[85.36530131570323,28.286341675228186],[85.36384425121123,28.28604119554474],[85.36256770313706,28.285884378961022],[85.36100631369052,28.286431706358204],[85.36032500439549,28.286180930405667],[85.35940636940848,28.286513575241344],[85.3591135537476,28.286247243715355],[85.35863713699436,28.286039354632607],[85.35912471343482,28.28551958875809],[85.36040434708302,28.285474309691637],[85.3613204936459,28.285303359362633],[85.3624884305967,28.285094989142443],[85.36456354157424,28.285301805334083],[85.36629645961398,28.285484279575844],[85.36798988212739,28.285261931193205],[85.36897359565491,28.28515238567415],[85.3702785227357,28.28494558477099],[85.37112011010501,28.28427885978155],[85.37305541427597,28.28296341962617],[85.37458956505643,28.281509325594943],[85.37557379569414,28.27998949921606],[85.3755780000247,28.279958999608155],[85.37562416492337,28.279850254485737],[85.3757080590797,28.27755171324102],[85.37560197055453,28.276629070874957],[85.37554900048602,28.276519999298564],[85.37540400009459,28.275875999278053],[85.37546467645373,28.27543504549097],[85.37544092086183,28.275228446935373],[85.37572941797835,28.272822553618003],[85.37536624925303,28.27018582411651],[85.37585683392582,28.27019165172335],[85.37548700032484,28.268142999699684],[85.37484200025816,28.267077000003614],[85.37285000012744,28.265871999293378],[85.37198300061507,28.264730999735875],[85.37075200050442,28.261492999702263],[85.37031199999889,28.260928999773547],[85.36869400002817,28.260304999776007],[85.36763000042428,28.260197999338253],[85.3671840005413,28.25973099938612],[85.3666710002665,28.25950899994045],[85.36638700065957,28.25908399922725],[85.36571200010873,28.25865499922888],[85.36522199999536,28.258483999437132],[85.36473100073518,28.258096999576974],[85.36463900008985,28.257697000016567],[85.36430800011416,28.257461999971365],[85.36408400057621,28.257101999557708],[85.36389200071532,28.255934999700514],[85.36365800071621,28.255536999333096],[85.3638780000697,28.254288999337927],[85.36377000048522,28.252992999827107],[85.36341200016375,28.25266999932112],[85.36258300060506,28.252725999205584],[85.36237399996018,28.25261599952884],[85.36237800014463,28.252463999713882],[85.36259700035131,28.252258999253453],[85.3634050007403,28.251945999208548],[85.36369600066998,28.25159999944051],[85.36383900006985,28.249309999956605],[85.36287700067308,28.248228999568735],[85.36282400002762,28.24794600000797],[85.36245700019052,28.247332999618234],[85.361690000793,28.24689499920496],[85.36044399999065,28.24577899990097],[85.35849299995206,28.244442999444928],[85.35667800078919,28.242166999707273],[85.3569110007422,28.240372999714268],[85.35684900058094,28.239798999324382],[85.35712700081052,28.23915999953441],[85.3572420007178,28.238338999445343],[85.35716200062583,28.23806099921584],[85.35688400039633,28.237940999977205],[85.35679200065037,28.237766000000917],[85.35710500069528,28.237329999679826],[85.35686600046563,28.236429999544875],[85.3569120007883,28.236235999591795],[85.35721400032594,28.235832999893116],[85.35764700050876,28.23565499977847],[85.35793600034616,28.234939999181695],[85.3579820006689,28.234518999552225],[85.35868300062006,28.233645999763144],[85.35881700050422,28.233170999442113],[85.35912500031858,28.23292399974284],[85.35948300063997,28.23206999993064],[85.35938600066348,28.231551999425307],[85.35983300059254,28.231025999450353],[85.35979700073106,28.23053599933698],[85.360021000269,28.229616999225147],[85.36003900019979,28.22902099961948],[85.36026900001436,28.228731999782084],[85.3601699999456,28.227056999880727],[85.3602560003142,28.225760999470626],[85.35993900008485,28.224807999589572],[85.36005200079923,28.22437299931457],[85.35978300008544,28.224037999154426],[85.35976700024692,28.223732999478422],[85.35922900061789,28.223119999988054],[85.35905500068779,28.222723999712816],[85.358035000415,28.222105999991996],[85.35777500011629,28.221593999763382],[85.3574780008091,28.221450999464047],[85.35729600051009,28.221013999996146],[85.35725700051024,28.22028299956085],[85.35700600062651,28.219910999493123],[85.35633300016787,28.219520999494605],[85.35613600007643,28.21914899942679],[85.3552770000336,28.21835699977577],[85.35457500003626,28.217380999733386],[85.35426199999137,28.217133999134834],[85.35366800047787,28.216922999297054],[85.3536650003396,28.216668999274972],[85.35401800043044,28.216570999252298],[85.3541430007989,28.216339999391458],[85.35403000008452,28.2153339997643],[85.35409000015343,28.21420199972251],[85.3538050005004,28.21146999964079],[85.35369700001664,28.211173999480497],[85.35329700045632,28.210777999205348],[85.35303900024971,28.210078999346464],[85.35266900027425,28.209812999670223],[85.35312600066449,28.209180999303694],[85.35319300015684,28.20847199988292],[85.35344500008674,28.208079999792222],[85.3538220003851,28.20784999997756],[85.35384400050025,28.207055999334994],[85.35400300063802,28.20635399933766],[85.35378200033907,28.20542799980239],[85.35338900020228,28.205164999365227],[85.35323400024896,28.20479899957422],[85.35283799997373,28.204519999298537],[85.35199000043825,28.202844999397268],[85.35192400009261,28.20160299967873],[85.35171000011647,28.201109999426997],[85.35183400043884,28.199944999662073],[85.35114099995721,28.198352999991048],[85.3505770000286,28.197600999486603],[85.34997200000784,28.197423999418135],[85.3496340006087,28.197165999211602],[85.34923400014911,28.19623399939961],[85.34905600003437,28.195267999818395],[85.3487229999665,28.194625999890064],[85.34878600017386,28.194246999499438],[85.34793000026939,28.192510999483076],[85.34768200052393,28.191654999578606],[85.34726500017963,28.191200999326725],[85.34690600071144,28.190407999629528],[85.3455780006243,28.189540999217797],[85.34550800009421,28.189231999357343],[85.34560199993244,28.18875099965896],[85.34518400044132,28.187973999800285],[85.34508000014193,28.187199999180688],[85.34466699998208,28.186509999736796],[85.34420800039894,28.186098999669127],[85.34380400065417,28.185227999972227],[85.34341400065566,28.184813999766376],[85.34333500060986,28.184371999168476],[85.34306600079535,28.18382299993156],[85.34243100029055,28.183266999472465],[85.34236800008318,28.18294700000412],[85.34206700059163,28.182621999405775],[85.34130500052548,28.182659999359537],[85.34036700043676,28.1829159994738],[85.33992799997722,28.182692999982038],[85.33949400064768,28.18225899975304],[85.33954700039378,28.18184399950101],[85.34055700020548,28.18125399927269],[85.34125200077928,28.18062199980553],[85.34198100022303,28.178794999189936],[85.34210300045312,28.178061999561653],[85.34196600043069,28.175704999686022],[85.342001000246,28.172971999558214],[85.34150000052465,28.16730199978754],[85.34091500052696,28.16662299995154],[85.34085600050405,28.165891999516155],[85.34059900034369,28.16553099995569],[85.33999500036903,28.16515099951906],[85.33805900012278,28.164594999959334],[85.33692200074982,28.163540999917245],[85.33666700068156,28.1626039998748],[85.33548300004047,28.16133099962603],[85.33520500071025,28.160696000020423],[85.33458700009007,28.15982499942424],[85.33313700067211,28.1591739999802],[85.33195099993875,28.158419999383486],[85.33046600070539,28.15676299941292],[85.32923300050265,28.156089999853638],[85.32799500006928,28.155141999303844],[85.32578600072344,28.15310099961148],[85.32524900024123,28.15246499995978],[85.32436400079807,28.151804999201467],[85.32321700006457,28.15123999922666],[85.3215680004629,28.150936999642838],[85.31911200051852,28.149151999165454],[85.31743900070943,28.148094999884375],[85.31336000056368,28.146015999338967],[85.31264700005909,28.145485999179563],[85.31180599994705,28.144422999621764],[85.31136500029461,28.143571999947923],[85.31092800082662,28.143353999787333],[85.30994000023088,28.14326199914201],[85.3094760004171,28.1431039999497],[85.30841800019057,28.14222399983781],[85.30748900051702,28.141850999723903],[85.30682900065791,28.141432999333514],[85.30453600013637,28.138916999320116],[85.3041850001377,28.13788499939327],[85.30323400034891,28.136122999976497],[85.3009970006111,28.13340299954885],[85.30011600045313,28.132732999228647],[85.29953500063979,28.131884999693078],[85.29967100061623,28.131152999211604],[85.29937200031767,28.129870999447125],[85.29910100041089,28.12955099997869],[85.29813900011484,28.128851999220437],[85.29769500032404,28.12783099980085],[85.29700200074178,28.126849999527924],[85.29626299993751,28.12635199994493],[85.2941460003377,28.125406999533407],[85.29214700078356,28.123476999563966],[85.29092400014252,28.122945999358382],[85.29063300021286,28.12269799961302],[85.29052700072057,28.122125999315493],[85.29031400079052,28.121918999662164],[85.28924900024126,28.12142399931816],[85.28854400010556,28.121371999618148],[85.28816400056822,28.121152999411468],[85.28777000038525,28.120655999874565],[85.28782100003917,28.120272999299488],[85.28745300015589,28.1194869999251],[85.28741900038658,28.11907799994979],[85.28718600043365,28.11883899972014],[85.28671700038934,28.11862199960564],[85.28567900018577,28.118512999974985],[85.2853610008096,28.11820499926134],[85.28471500069682,28.117884999792995],[85.28389800079212,28.117909000000417],[85.28346700070156,28.117431999587115],[85.28259000072804,28.116981999519773],[85.28240100010613,28.116630999521107],[85.28179600008538,28.116765999451363],[85.28172500040849,28.116382999775656],[85.28149400054774,28.11609499998435],[85.28155300057055,28.11580300000851],[85.28136600004092,28.11518899957277],[85.28091599997349,28.114592999967012],[85.28087600082682,28.11413099934614],[85.28043900045955,28.113879999462508],[85.28020400041436,28.113555999809623],[85.27980500000085,28.113532999648292],[85.27928700039479,28.113732999878092],[85.27917500062587,28.11369299983215],[85.27913900076437,28.11325099923425],[85.27902100071864,28.113081999534682],[85.27835100039844,28.112976999189197],[85.2781300000995,28.113176999418997],[85.27819100021449,28.113574999786504],[85.2780590004226,28.114056999530888],[85.27777200067739,28.11414799923084],[85.27740499994091,28.113965999831024],[85.27711100077217,28.113658999163558],[85.2768920005655,28.112935999996445],[85.27698300026536,28.11172999924012],[85.27632900068286,28.111214999772514],[85.27639800026758,28.110398999913986],[85.27655900049753,28.11003499931579],[85.27648700077454,28.10982599957028],[85.27592299994654,28.109454999548642],[85.27556400047835,28.109663999294153],[85.27489600025032,28.109565999271567],[85.27407400011508,28.10813399978431],[85.27376700034681,28.107788000016185],[85.27349100020957,28.10767299920953],[85.27303800000378,28.10768299967079],[85.2721660002608,28.10726799941867],[85.2709910000347,28.10623099926128],[85.27068700040478,28.105496999586908],[85.26996900056902,28.104540999567494],[85.26899100043437,28.104133999684365],[85.26837800004472,28.103533999894246],[85.26772200037013,28.103345999318517],[85.26675400069665,28.10274599952831],[85.26550700074758,28.101591999371365],[85.26522600037971,28.101204999511207],[85.26453399994418,28.100910999443094],[85.26368500036251,28.100059999769165],[85.26331800052542,28.098778000004774],[85.26300000024989,28.098320999614444],[85.26162000046273,28.097667000032043],[85.26051699995962,28.0967829997357],[85.26008799996124,28.096255999714657],[85.2587510003584,28.095772999924094],[85.257167000157,28.095768999739644],[85.2566160008278,28.095578999970925],[85.25539700037132,28.095402999948547],[85.25300899996546,28.09415799919237],[85.25210600059151,28.093906999308647],[85.2516200006626,28.0935019995177],[85.24979300004699,28.093244999357257],[85.24853500048994,28.092820999589517],[85.24755300017084,28.092806999843177],[85.24651100068219,28.092947000004063],[85.24521700036435,28.092808999935446],[85.24364400067012,28.093029999335027],[85.24171900003185,28.092932999358442],[85.24114900072587,28.092795999336005],[85.23943200068639,28.092755999289974],[85.23878300043516,28.09222999931511],[85.23733600025629,28.091945999708166],[85.23676100071968,28.09205099915437],[85.23567600014736,28.091869999800643],[85.2341570002454,28.09202999998459],[85.23397200070733,28.091963999638956],[85.23367500050094,28.091508999340896],[85.23301200050345,28.091234999295843],[85.23313900006481,28.090842999205144],[85.23303500066478,28.090630999321185],[85.23243200073631,28.090393999183803],[85.23211800064523,28.090448999921456],[85.23154700039379,28.090190999714924],[85.2310499999576,28.089837999623988],[85.2304570004902,28.088983999811788],[85.22978100079266,28.08881300001995],[85.22927900012584,28.088479999952074],[85.22904300003447,28.088123999722868],[85.22876899998941,28.088027999792374],[85.22849200070536,28.087712999655288],[85.22811800054536,28.087668999424807],[85.22757300059354,28.087404999840924],[85.22735500043294,28.086953999727402],[85.22650200066683,28.08647999945246],[85.22613700002263,28.085930999316176],[85.22607500076073,28.08537799989481],[85.22583200034663,28.08497799943521],[85.22519600069494,28.084637999943805],[85.22443700076704,28.084039999346587],[85.22400500063031,28.08391299978514],[85.22375000056215,28.084006999623366],[85.22339600042511,28.083825999370447],[85.22282200003532,28.083117999995764],[85.22205100045336,28.082726999951156],[85.2211260000649,28.082675999397864],[85.22072000022796,28.083298999349402],[85.22058000006697,28.083287999741422],[85.21981699995465,28.082341999283898],[85.21899799995775,28.081892999262557],[85.21862900002839,28.0819499991932],[85.21862000051267,28.081589999678823],[85.21802500005381,28.080990999934706],[85.21749900007886,28.08085799919735],[85.21715400035691,28.080929999819702],[85.21689400005812,28.080625999290508],[85.21628400070611,28.08070799947466],[85.21627700038339,28.0805029999136],[85.21698400061116,28.080142999499856],[85.21701500024211,28.079943999316146],[85.21686900070388,28.079667999178824],[85.21669900005885,28.079557999502168],[85.21616500061437,28.079531999202477],[85.21610700063763,28.07892999932009],[85.21556800006324,28.078452999806156],[85.21440800052886,28.077780999393685],[85.21384100046187,28.07704999985767],[85.21210000021487,28.07640299969871],[85.21125599996448,28.07655899969812],[85.21110800033398,28.07635199914551],[85.21118200014922,28.075896999746817],[85.21107300051867,28.075693999378657],[85.21022700017599,28.07530999965686],[85.20934499997183,28.07507899979602],[85.20767700039329,28.073689999593874],[85.20671199995888,28.073091999895937],[85.20635100039841,28.071303999280193],[85.20574000010103,28.070449999467904],[85.20529400021796,28.06950299986366],[85.20485700075007,28.06908199933482],[85.20462100065878,28.06845499919892],[85.20455200017469,28.0676029994789],[85.20476500010474,28.066894999204937],[85.20514400049528,28.066179999507444],[85.20537600040221,28.064875999627724],[85.206074000215,28.063363000002493],[85.20601900037663,28.062930999865763],[85.20566600028577,28.062710999612992],[85.2062660000759,28.06205299984614],[85.20627100030644,28.06076299971276],[85.20728300021031,28.059359999764276],[85.20736600044064,28.058426999906104],[85.20722600027976,28.058001999192992],[85.20740900062495,28.05748199949467],[85.20732100016407,28.056513999821274],[85.20662000021292,28.05514399959592],[85.20663600005145,28.054779999897093],[85.20600500063037,28.053985999254525],[85.20543600047112,28.05361599927898],[85.20521099998771,28.053229999465],[85.20290300057312,28.05089899988897],[85.20264200022822,28.050077999799903],[85.20204700066856,28.04916799920387],[85.20191000064611,28.04871699998963],[85.2011220002801,28.047725999255533],[85.2007290001433,28.0468049999508],[85.20034300032923,28.04637399986025],[85.1987359999665,28.045229999265107],[85.19813400008411,28.04446799919886],[85.19712300022633,28.043924999339296],[85.19466400014356,28.042158999738074],[85.19418400049128,28.04145299955629],[85.19377800065423,28.041067999788403],[85.19327200070234,28.040303999629977],[85.1932510006332,28.039776999608844],[85.19279100010468,28.03907399956542],[85.1928940003579,28.038777999405216],[85.19281900049656,28.03845699989069],[85.19250300031328,28.038116999500005],[85.19248800052085,28.03777799915541],[85.19271100001271,28.03712899980355],[85.19267000081996,28.03605199960013],[85.19294000068055,28.03482899985856],[85.19276100051982,28.034232999353524],[85.1930750006109,28.033138999265493],[85.19290400081907,28.031717999386217],[85.19244900052101,28.030423999967667],[85.19132300075593,28.028928999373857],[85.18858800053586,28.027552999771153],[85.18573300017786,28.025746999224708],[85.18525300052566,28.02513199964207],[85.18442700020596,28.023323999902725],[85.18413300013785,28.022415999398874],[85.18406200046095,28.02040799942964],[85.184580000067,28.019026999596395],[85.18506900013429,28.018355999230014],[85.18549100070922,28.017498999279454],[85.18413600027621,28.014790999405157],[85.18356600007095,28.01420699945347],[85.18227599993757,28.013406999433553],[85.18179900042364,28.011977999185376],[85.18175400014707,28.011549999233097],[85.18188599993906,28.01055599926001],[85.1828380006733,28.007007999319764],[85.18311300076444,28.005449999417962],[85.18319000071806,28.000407999829367],[85.18383599993146,27.999086000018945],[85.18392400039242,27.997824999424246],[85.1834490000713,27.996694999474723],[85.18254899993644,27.995498000032757],[85.18137899994097,27.992276999883668],[85.18086100033501,27.98974399998566],[85.18024500070628,27.989004999181375],[85.17935300004095,27.986592999467373],[85.1789910004344,27.979949999792762],[85.17986400022347,27.978861999981362],[85.18002900063796,27.9782069994535],[85.18100800081862,27.975873999785293],[85.18105300019582,27.97473199928233],[85.18062200010527,27.972915999174084],[85.18103600031121,27.97151199917951],[85.18029900049848,27.97048299939102],[85.1795400005706,27.97002799999224],[85.17688700053466,27.969299999695306],[85.17581500056188,27.968640999882275],[85.17563600040114,27.968246999699307],[85.17539100079414,27.968040999192787],[85.17487100019653,27.967798999724057],[85.17400900001543,27.96763999958638],[85.17302000027288,27.967628999978487],[85.17232200046,27.96700999931212],[85.17152600062454,27.966647999705472],[85.17141900018679,27.966272999499385],[85.17157200004783,27.965685999409427],[85.17135900011787,27.96510999982664],[85.17073000078898,27.96486599936645],[85.17023800058334,27.96508399952704],[85.17015200021464,27.96470199989742],[85.16963999998612,27.96448199964465],[85.16942800010216,27.964142999299966],[85.16857400028996,27.963952999531337],[85.16842000038274,27.96377799955505],[85.16832600054451,27.963509999786716],[85.16838800070569,27.96255299972121],[85.16808700031486,27.961958999308443],[85.16828200031412,27.96163599970165],[85.16814300019932,27.96103699995762],[85.16726900036414,27.959697999363218],[85.16706900013426,27.959198999734134],[85.16659500075869,27.9588889998275],[85.16549200025567,27.958531999552203],[85.16504300023432,27.958123999622984],[85.16345600079384,27.957438999510263],[85.16307400026494,27.956910999443128],[85.16307400026494,27.95611699969984],[85.16265000049721,27.95569899930945],[85.16245300040576,27.95564599956326],[85.1622760003372,27.955746999724294],[85.16181300056952,27.95673299932848],[85.16133100082514,27.957075999857615],[85.16112500031862,27.957017999880883],[85.16109300064149,27.95671899958223],[85.16167700059317,27.955709999816712],[85.1615360003861,27.955125999865025],[85.16122800057184,27.954546999244688],[85.16125100073317,27.95414999982264],[85.16159600045512,27.95374799927077],[85.16156400077807,27.953193999803315],[85.16174199999335,27.95264099948258],[85.1616570005702,27.951002999488892],[85.16153200020166,27.950484999882928],[85.16160300077793,27.950172999884114],[85.16130600057154,27.949147999380706],[85.16130600057154,27.94878199958961],[85.16085300036575,27.94775299980112],[85.15995700041533,27.947004999481216],[85.15915600034916,27.946568000013226],[85.15924200071784,27.946337999299285],[85.15981099997774,27.946315999184133],[85.15992300064603,27.94604399923126],[85.15927100025652,27.945034999465655],[85.15916800000322,27.944239999676277],[85.15872700035086,27.943735999816564],[85.15830700076758,27.942449999867634],[85.15741600014834,27.941987999246763],[85.15698700014997,27.94196899926997],[85.1569570005652,27.94175499929383],[85.15730600047159,27.941396999871724],[85.15707900079529,27.940929999919593],[85.15709800077218,27.940335999506825],[85.15671100001273,27.939716999739826],[85.15534499997183,27.93849899932943],[85.15282300058108,27.936525999175597],[85.15062100065869,27.93548299964077],[85.14989900063838,27.934932999458393],[85.14948500043253,27.93486599996595],[85.14878400048129,27.935023999158258],[85.14852600027476,27.934583999551997],[85.14843700066716,27.934045999922972],[85.14771200050849,27.93230699976825],[85.14721800021059,27.930534999890398],[85.14689300051161,27.92994299956981],[85.14721299998004,27.92932199971054],[85.14726900076387,27.92885899994295],[85.14770200004733,27.92821700001453],[85.1485300004592,27.927859999739233],[85.14886800075762,27.927288999487796],[85.1487570001355,27.925946999654315],[85.14814600073741,27.924845999243562],[85.14828200071385,27.924328999683688],[85.1481030005531,27.924000999846353],[85.14808900080676,27.92304599987303],[85.14777100053132,27.922312999345465],[85.14712700051072,27.92200499953119],[85.14507800044946,27.92139899946435],[85.14315400075655,27.92114899962663],[85.14264100048185,27.920882999950567],[85.14211800064525,27.920347999560622],[85.14121800051039,27.919715999194093],[85.14042400076711,27.919281999864463],[85.13934300037924,27.919309999357054],[85.1387120000588,27.919723999562994],[85.13830800031403,27.91962899967868],[85.13768800050084,27.91899300002698],[85.1373790006404,27.918457999637035],[85.13601799993084,27.917756999685793],[85.13347400042485,27.915653999832244],[85.13342600000992,27.914578999721094],[85.13570599993203,27.91084799943566],[85.13743700061713,27.906693999428576],[85.1376480004549,27.90466399934419],[85.13721300017991,27.90231999916872],[85.13649800048242,27.901340999887257],[85.13544000025587,27.89709499923485],[85.13507800064932,27.89480299965876],[85.13528700039483,27.891298999948997],[85.13335500033303,27.88792899922394],[85.12975500069277,27.88534499967201],[85.12609800022258,27.882502999913548],[85.12463700029737,27.87828899983755],[85.12352400023246,27.8763349996606],[85.12125300072543,27.87591400003113],[85.11971599999342,27.874872999689202],[85.11804300018433,27.87395199948528],[85.11662600048959,27.873699999555377],[85.11567000047026,27.873797999578052],[85.1152510000337,27.873634999255835],[85.11432400045233,27.872595999905545],[85.11284900078086,27.868703999390075],[85.11162000076249,27.866126999261674],[85.10910699998807,27.863569999156155],[85.10629000048321,27.859649999148182],[85.10274400063524,27.85920499931129],[85.09740000060954,27.860843999351157],[85.09466700048173,27.862232999553303],[85.09298000002703,27.86367199936328],[85.09241400000613,27.863772999524404],[85.09185600035423,27.86370199984751],[85.08978900036216,27.86260599966721],[85.08893200041152,27.862300999991206],[85.088237000737,27.860571999398285],[85.08824100002225,27.859117999795878],[85.08730900021025,27.858184999937883],[85.08497100031151,27.857591999571206],[85.08159700030137,27.857758000031694],[85.07847700031341,27.85642499971401],[85.07753900022479,27.855673999255746],[85.07612100048387,27.85489999953543],[85.07366900072384,27.85485499925886],[85.07285600010438,27.854997999558105],[85.07268400026646,27.855144999142432],[85.07267400070465,27.8553469994645],[85.07323400044883,27.85657399939061],[85.07232300070599,27.858009999961595],[85.07129100077914,27.860174999976326],[85.06997100016153,27.860813999766297],[85.0692330003028,27.86071499969753],[85.06828899993745,27.860858999143588],[85.0676490001013,27.862307999414647],[85.06738800065578,27.86258399955197],[85.06722900051801,27.86242399936811],[85.06688599998897,27.861478999855958],[85.06612700006109,27.860839999166707],[85.06556100004019,27.86067099946714],[85.06222399993771,27.860639999836188],[85.06102300031121,27.860352999191605],[85.05950400040935,27.860410000021528],[85.05796400043835,27.859305999472326],[85.05563800019357,27.858033999269736],[85.0541280007067,27.85766499934028],[85.05196599993096,27.85614299929997],[85.05112900000337,27.85574999916318],[85.04950000042477,27.855590999924782],[85.04842600035971,27.855261999141987],[85.04741200036356,27.85531899997191],[85.04653400034394,27.85596399913932],[85.04562200055491,27.857116999250174],[85.0438400002159,27.85744199984843],[85.04129100047936,27.85680799938972],[85.03455000078199,27.855580999463612],[85.03185500060785,27.85536199925693],[85.02986800070768,27.85384099926271],[85.02889300071148,27.852220999199815],[85.02881300061959,27.85017899946136],[85.02871500059683,27.84997999927756],[85.02741399995618,27.84911199971911],[85.02385700050023,27.84806299990756],[85.02097100051138,27.84672999958988],[85.01896100044988,27.844981999919447],[85.01829400026794,27.843401999902404],[85.0185920005205,27.841723999862776],[85.0194820001942,27.839790999754886],[85.0208730004886,27.837457999187308],[85.02140799997927,27.836349999353025],[85.02079700058118,27.835748999516728],[85.02041000072101,27.835531999402317],[85.01885400001211,27.83517199988794],[85.0181930001069,27.834863999174296],[85.01745500024808,27.834032999523338],[85.01730100034095,27.83370299959382],[85.01755500036303,27.833294999664513],[85.01813099994573,27.83320299991856],[85.01984699993912,27.833494999894313],[85.02051600021332,27.833797999478136],[85.02074000065053,27.833726999801243],[85.02082199993541,27.833505999502293],[85.0189840006112,27.829650999793863],[85.01693700064212,27.82806099931574],[85.01578500057735,27.826892999412454],[85.01568500046241,27.825901999577727],[85.01608399997664,27.82445799953712],[85.01580700069259,27.823478999356375],[85.01557900007083,27.821194999249908],[85.0153720004175,27.820455999344993],[85.0149190002118,27.819797999578054],[85.01398600035363,27.816624999843896],[85.01339600012531,27.815174999526658],[85.01206800003825,27.813181999349855],[85.01152200004033,27.81133999984111],[85.01187400008509,27.80968399991672],[85.01210499994585,27.80942099947956],[85.0128820007038,27.809325999595245],[85.01315799994184,27.808960999850328],[85.01309300054157,27.808204999161433],[85.01287600042717,27.80791399923177],[85.01211800054537,27.8077529999011],[85.01093200071129,27.80706999988065],[85.0075970007011,27.805836999677823],[85.00677700065812,27.8057860000239],[85.0061090004301,27.80558299965574],[85.00366000080842,27.804234999545628],[85.00282400002764,27.80296899961967],[85.00133400056374,27.802491999206456],[84.9995010005708,27.802690999390165],[84.99780500060038,27.803691999686063],[84.99618300044513,27.80429899979908],[84.99345000031732,27.804202999868586],[84.99230700066764,27.80384899973156],[84.99191500057685,27.80388099940869],[84.99154000037076,27.804110999223262],[84.99013600037618,27.805445999633214],[84.98928500070225,27.805869999401043],[84.98793600054606,27.806132999838116],[84.98578200013921,27.805688000001226],[84.98360500047042,27.80448399933717],[84.98241000022135,27.80344600003288],[84.98192700043079,27.803166999757288],[84.98036400029844,27.802928999573727],[84.97966100025502,27.802638999690153],[84.97932900023324,27.802620999759363],[84.97870900042014,27.802212999830143],[84.97762900007837,27.80194099987727],[84.97595700031536,27.801857999647027],[84.9745000005746,27.802078999945977],[84.97317300053363,27.802508999990348],[84.97297800053438,27.802678999736095],[84.97271300000503,27.804216999614837],[84.97273600016636,27.804879999612318],[84.97260600046666,27.8051859993345],[84.97218700003008,27.805495999241046],[84.97089400065771,27.806115999953505],[84.9700940006377,27.807349999303053],[84.9701730006835,27.809692999432432],[84.9695380001786,27.81135499963354],[84.96868000018186,27.812326999491475],[84.96751000018641,27.812130999446126],[84.96703600081084,27.811669999770714],[84.96627200065231,27.811660999355723],[84.9659160004231,27.81198099972344],[84.96538900040215,27.81284099981236],[84.96450000077446,27.815100999711404],[84.96296300004244,27.8165109999827],[84.96045700049021,27.81802199951575],[84.95906300005753,27.81866199935181],[84.956575000436,27.81870199939784],[84.95628500055243,27.818573999790306],[84.95441999998307,27.817017999980774],[84.95325700031042,27.81651999949841],[84.95064500036652,27.81739399933367],[84.94917399998023,27.81734799991038],[84.94739100049439,27.816668000028287],[84.94622500068328,27.815569999755716],[84.94518300029527,27.814298999599217],[84.94322000060261,27.811522999287018],[84.94087300028878,27.807760999370633],[84.94019600054504,27.806117999146405],[84.93944700017896,27.805211999634103],[84.93867000032029,27.805025000003834],[84.93711200041858,27.80556299963277],[84.93629700060613,27.80553200000182],[84.93384900013136,27.80431299954533],[84.93155300037074,27.80216799955357],[84.92760400082399,27.800138999515276],[84.92665900041256,27.79938199967957],[84.92531100030244,27.798661999751538],[84.92319500074873,27.798200000030036],[84.92122900001843,27.798885999289478],[84.91877800030458,27.800512999675185],[84.91765899996295,27.80084599974315],[84.9156780003395,27.801828999209064],[84.9149120000888,27.803085999619224],[84.91447999995206,27.80451099968295],[84.91427700048328,27.804777999405193],[84.91344200064788,27.805323999403118],[84.9123960000754,27.80559299921763],[84.91174999996262,27.80554399965589],[84.91040700008305,27.804869000004338],[84.90864899995145,27.804842999704736],[84.90828100006817,27.805013999496484],[84.90808200078384,27.805471999932905],[84.90822300009144,27.80581499956267],[84.90818700022994,27.806927999627494],[84.90784999997761,27.807426999256666],[84.90615100076812,27.808264999230435],[84.90460700061266,27.808241999968384],[84.90285100057324,27.807438999810017],[84.90033900074438,27.80729799960304],[84.89936200065581,27.80705999941948],[84.89876400005859,27.8070839996269],[84.89766300054713,27.807455999694717],[84.89658000006699,27.808077999600076],[84.89452400058228,27.80811299941539],[84.89362000026287,27.808482999390936],[84.89329400051773,27.808731999182477],[84.88740900072482,27.810013999846237],[84.88611700049925,27.810137999269323],[84.8858440005003,27.81007499996133],[84.88519000001853,27.809518999502323],[84.88451500036697,27.80945599929496],[84.88352300048615,27.809552999271546],[84.88299600046511,27.81009099979985],[84.88224100072168,27.81026999996059],[84.88015300066056,27.809998999154526],[84.87899900050353,27.80944799982543],[84.87744900007134,27.808942999919537],[84.87582000049274,27.8085889997826],[84.87493900033466,27.808615999229012],[84.87426799996828,27.808473999875226],[84.8710970003264,27.807141999603633],[84.87081000058109,27.806516999560003],[84.87207000023042,27.804452999706218],[84.87204000064555,27.804105999892002],[84.87185700030037,27.80387999936251],[84.87009300079141,27.802939999181618],[84.8678760001773,27.802505999852077],[84.86608800046093,27.802430999990733],[84.86481100002771,27.803088999757584],[84.86377000058515,27.804169999246174],[84.86273200038158,27.805480999448616],[84.86098900004232,27.806977999235325],[84.85935800037144,27.80776799969353],[84.85585799994676,27.80815599959978],[84.85177100033141,27.809044999227382],[84.8495150006169,27.809104999296295],[84.84856499997484,27.808032999323505],[84.84619500039905,27.803693999778332],[84.84368000043173,27.802664999989844],[84.84169400057775,27.80235299999103],[84.83964900070093,27.80275599968971],[84.8394530006555,27.802919999158647],[84.83868400026653,27.80558699984019],[84.8379470004538,27.807443999141277],[84.8364480005748,27.8088239998278],[84.83562400034738,27.81118099970343],[84.8357870006696,27.81347499937179],[84.83544500018664,27.814471999483235],[84.83178100029302,27.817756999885688],[84.829441000302,27.81911099937315],[84.82761600067796,27.81973899955523],[84.82480800068872,27.819157999741904],[84.82295100048835,27.81799400002316],[84.82146400026345,27.81522899931885],[84.82075400079658,27.81372199997034],[84.82146100012508,27.811659999309633],[84.82190700000807,27.809526999871224],[84.82192400079204,27.808629999874633],[84.82170500058537,27.808413999806312],[84.81972199997035,27.808279999922057],[84.8182820001143,27.80878299973568],[84.8174640001635,27.81068699940552],[84.81749600073991,27.812118999792055],[84.81646200072088,27.81347499937179],[84.81313400013413,27.814741999343838],[84.81177400036994,27.815382999226077],[84.81076400055824,27.81608099993824],[84.81038800030606,27.81652499972895],[84.810123000676,27.81741299931055],[84.80930600077139,27.81797299995401],[84.8063620008057,27.817852999816093],[84.80436700053673,27.817214000026123],[84.80195500082272,27.81562699968636],[84.80066200055089,27.815185999134638],[84.79797699993864,27.81478499952814],[84.79574000020094,27.814248999991474],[84.79444100055176,27.813648999301897],[84.7925749999363,27.81305899997286],[84.79076700019696,27.813420999579506],[84.78970600073143,27.814866999712294],[84.78787599997747,27.81502799994233],[84.78377000038532,27.814698999159535],[84.78183100000071,27.81650699979825],[84.78071200055845,27.81610699933865],[84.78116300067197,27.814728999643677],[84.78100500058038,27.813835999831536],[84.77920900049502,27.813408999925436],[84.77593900078428,27.81049099936017],[84.77530900051002,27.809572999294517],[84.7737260003547,27.809242999365],[84.77099500031908,27.811030999980655],[84.77016799995329,27.81219299960731],[84.7699580001616,27.813592999417434],[84.77019100011462,27.815137999618987],[84.76875300035073,27.817215999219023],[84.76695200003483,27.81861899916751],[84.76478700002009,27.819442999394937],[84.76083200019673,27.818519999998024],[84.75808200018422,27.816566999867163],[84.75591199993895,27.814858999343393],[84.75583000065407,27.813609999302045],[84.7558880006308,27.810235999291997],[84.75547400042487,27.80882099968944],[84.75400199999238,27.80750999948691],[84.7515460000479,27.80601199965411],[84.75029100062929,27.805477999310256],[84.74824400066021,27.806044999377242],[84.74652900071291,27.806301999537684],[84.74475000051216,27.805058999773056],[84.73976400080811,27.804970999312182],[84.73749900067834,27.804158999638194],[84.73652300063605,27.802649999298044],[84.73623800008365,27.800138999515276],[84.73563500015517,27.79825899915349],[84.7339250004385,27.797112999365446],[84.7316260005396,27.796664999390284],[84.73020500066032,27.79680099936663],[84.73001100070715,27.796914999227916],[84.72922700052575,27.79829799915334],[84.72777600016234,27.80041799979087],[84.72282500027362,27.801602999578765],[84.7211030000035,27.802453999252695],[84.7199790003307,27.80387299993907],[84.71870000070449,27.804326999291582],[84.71796000075348,27.804433999729426],[84.71650400015953,27.80345499954868],[84.71545500034807,27.802184999438182],[84.71416800035296,27.80106199981147],[84.7114280008017,27.800996999512016],[84.70958600039368,27.801781999739504],[84.70884400035041,27.802841000012133],[84.70903600021131,27.804226999176727],[84.70886100023502,27.80619299990703],[84.70816700060668,27.80725599946483],[84.70630800031404,27.807795999186034],[84.70429199997582,27.808083999876796],[84.70105900017283,27.808282000014326],[84.6963970001215,27.808953999527517],[84.69410900072987,27.809918999961923],[84.6912520002796,27.810193000006976],[84.68853200075132,27.810613999636445],[84.68471800023555,27.81095899935839],[84.68369600076987,27.811390999495032],[84.68063599995155,27.814057999277296],[84.67853500019018,27.81497399925068],[84.67729100037937,27.816030999431128],[84.67451000073599,27.816797999727914],[84.6733700003253,27.81735000000256],[84.67031700072906,27.817635999701682],[84.66835500018321,27.81888199960467],[84.66771800048534,27.81974299973968],[84.66828100036795,27.821760999270715],[84.66825700016054,27.822850000027486],[84.66769600037019,27.82398699940054],[84.66625500046793,27.825807999739414],[84.66394400001569,27.827609999202128],[84.66183300069243,27.828990999934742],[84.66152300078588,27.82980299960873],[84.66180500030065,27.83172599925554],[84.66226800006824,27.83304699991915],[84.66315100031849,27.834426999706306],[84.66360500057037,27.83539699947197],[84.66381500036206,27.836602999329017],[84.66388399994668,27.83814699948448],[84.66460800005926,27.8409389996352],[84.6631320003416,27.84413099934615],[84.66228700004503,27.84522899961872],[84.66179799997775,27.846359999614332],[84.66155700055519,27.847905999862064],[84.66109100064924,27.84914399939615],[84.66013500062982,27.850561999137067],[84.65828300066,27.851962999892564],[84.65571100076214,27.85293399970432],[84.65179500003924,27.852896999796737],[84.64921800081012,27.853118999242497],[84.6480810005378,27.85343499942576],[84.64737000012548,27.853961999446806],[84.64728300061006,27.854178999561217],[84.64744100070173,27.854965999880974],[84.64836600019083,27.855857999647025],[84.6504220005749,27.858180999753433],[84.65089599995048,27.85894700000413],[84.65033400011403,27.860100999261793],[84.64937300076345,27.86109899941933],[84.6472720001028,27.861601999232864],[84.64441900073635,27.86193999953137],[84.64274600002798,27.861642999324985],[84.64107200017271,27.860777999904805],[84.63906700034184,27.860418999537238],[84.63624700069853,27.86066499919042],[84.63505200044946,27.86127899962616],[84.63431300054455,27.86346799984831],[84.6341439999457,27.865032999173643],[84.63416399996868,27.86605599958478],[84.6350390007493,27.868554999713567],[84.63485100017358,27.86950599950235],[84.63407100017655,27.869850999224298],[84.63047600076682,27.870681999774536],[84.62815900003785,27.872162999722725],[84.62769500022418,27.872960999650463],[84.62774600077738,27.873902999923626],[84.62829300082139,27.874586999990168],[84.6279890002922,27.87744599963324],[84.62771200010879,27.87830799981443],[84.62587599997748,27.879708999670648],[84.62333300051758,27.880981999919417],[84.6206150001822,27.88145099996373],[84.61919700044129,27.881426999756307],[84.61722600037963,27.880479999252604],[84.61603200017674,27.87972599955526],[84.6149830003652,27.87951999994811],[84.61411100062222,27.878129999699784],[84.61362899997837,27.87657499993634],[84.61360800080868,27.87400699932365],[84.61227400044481,27.873053999442597],[84.6096630005471,27.87220999919211],[84.60841400050576,27.87202199951575],[84.60643100079012,27.872612999790157],[84.60561700012458,27.873057999627047],[84.60550500035556,27.873223999188255],[84.60535700072506,27.874482999690684],[84.60436800008314,27.87549799973292],[84.60105200004983,27.877040999842293],[84.5994250005634,27.87741699919519],[84.59769700001658,27.876815999358982],[84.59659500045902,27.876697999313247],[84.59574000060054,27.87719299965725],[84.59342000063259,27.879046999719346],[84.59098500075726,27.88042899959868],[84.58944800002523,27.88040499939126],[84.58770100040088,27.879446999279665],[84.58651200042854,27.878639999836217],[84.58421100043738,27.87652299933696],[84.58261200044355,27.875842999454868],[84.58093800058836,27.874951999735085],[84.57903700015751,27.873632000016844],[84.57666500048946,27.871729999539905],[84.57613700042232,27.87007399961543],[84.57624900019124,27.86865099964397],[84.57644700032887,27.867620999809304],[84.57706000071852,27.866870999397218],[84.57726500027967,27.86555499986334],[84.57676500060431,27.864428999198985],[84.57566400019356,27.863829999454957],[84.57408900040714,27.862711999159504],[84.57291500022714,27.861584999348253],[84.57148000060161,27.860842999304978],[84.56684800013514,27.859023999957653],[84.5600959999305,27.858410999568004],[84.55922300014142,27.858853999312625],[84.55823800058333,27.85962399974786],[84.5570300006341,27.85960199963262],[84.55639500012921,27.85919699984176],[84.55772200017017,27.858879999612316],[84.55790400046926,27.858616000028434],[84.55778400033144,27.857795999985456],[84.55700900056495,27.856951999735056],[84.55673600056608,27.8548499999276],[84.55643900035969,27.853647999355722],[84.55641200001382,27.85124799929579],[84.55688700033485,27.84996099930068],[84.55764300012437,27.84844099935273],[84.55883700032736,27.847701999447814],[84.55788600053857,27.850631999667062],[84.55765300058555,27.85400199949275],[84.55905300039568,27.856665999136652],[84.56013100064527,27.857611999594177],[84.56738400057127,27.85830899936088],[84.57168700025494,27.86024399956095],[84.575121000334,27.862100999761406],[84.57764900000146,27.864146999684312],[84.57800900041512,27.866086999215643],[84.57740000020992,27.868280999668425],[84.57712500011868,27.87010999947692],[84.57784000071555,27.871331999172487],[84.58098400001165,27.873612999140683],[84.58480800008923,27.87592799977747],[84.58731000035628,27.877922999147174],[84.58952499997885,27.879043999580986],[84.59062400029741,27.879233999349616],[84.59236300045214,27.87824099942262],[84.59371699993969,27.8767969993821],[84.59504600007293,27.87592499963911],[84.59686900050397,27.87547899975604],[84.59829100042934,27.875742999340012],[84.60074800042001,27.875802999408926],[84.6024739999752,27.875072999919002],[84.60350500075523,27.874224999484152],[84.60433400031393,27.871997999308327],[84.60529500056388,27.87142299977163],[84.60745500034807,27.870923999243267],[84.611343000679,27.871288999887465],[84.61381300036973,27.872170999192257],[84.61513099999571,27.87308600001892],[84.61542800020209,27.875010999757908],[84.61583100080006,27.876580999313692],[84.6175770003783,27.877961999146937],[84.6182920000758,27.878735999766622],[84.61935800067124,27.879059999419507],[84.62054200041304,27.877535999287016],[84.62284100031194,27.87679799942819],[84.62406300000751,27.876040999592576],[84.62538300062502,27.87415699994562],[84.62643800071321,27.87202699974629],[84.62862300075099,27.87015999998412],[84.63264200082773,27.86859399971333],[84.63267800068922,27.8673349992109],[84.63249200020577,27.863507999894342],[84.6327930005966,27.862032999323503],[84.63509900081831,27.859732999378515],[84.6401670007066,27.859294999864435],[84.64183200014669,27.859323999403117],[84.64625600001447,27.86001699988465],[84.6474610007247,27.859884999193383],[84.6487240005123,27.859090999450096],[84.64882600071942,27.858838999520284],[84.64793700019246,27.85727999957239],[84.64610200010733,27.855289999533948],[84.64640800072871,27.853528999263986],[84.64733600035616,27.852832999543374],[84.64976900013932,27.852098999869],[84.65351200007882,27.852044000030627],[84.65707500071078,27.85147999920263],[84.65920800014909,27.85015999948448],[84.66042700060567,27.848550999928754],[84.66093600069593,27.846438999660126],[84.66104500032658,27.84456099939061],[84.66155300037074,27.842291999975853],[84.6631930004567,27.840671999912868],[84.66294799995033,27.836526999421583],[84.66192400039237,27.83430099929167],[84.66088200000436,27.832724999459256],[84.6601820000993,27.831047999465717],[84.65994800010019,27.829431999587182],[84.66150200071682,27.827297999203314],[84.66438600061349,27.825202999718755],[84.6646730003587,27.824768999489756],[84.66438600061349,27.824272999998943],[84.66473000028935,27.823890999470134],[84.66544499998676,27.824186999630427],[84.66565300058555,27.824164999515187],[84.66641899993697,27.823035999611754],[84.66695300028081,27.82189999938551],[84.66640700028289,27.820844999297332],[84.66627300039872,27.81926099999521],[84.66670000030483,27.818104999745994],[84.66866700018203,27.817220999449564],[84.66860300082786,27.81545099966398],[84.67066500058937,27.816427999752456],[84.67263300051266,27.816169999545835],[84.67603700010748,27.815148999226967],[84.67796100069965,27.813828999508726],[84.67937400020995,27.81309199969608],[84.6837910006542,27.80989399970841],[84.68615599999944,27.809484999733012],[84.68887200024264,27.809290999779844],[84.69143700071706,27.808618999367372],[84.69306900043411,27.8087739993206],[84.69525100033346,27.80749899987902],[84.6952039999647,27.80724399981076],[84.69423900042958,27.806277999330263],[84.69415000082189,27.805709999217097],[84.6954290004481,27.805522999586827],[84.69540200010223,27.805884999193385],[84.69549900007881,27.806064999400213],[84.69676700009704,27.806588999282987],[84.69966500063934,27.806517999606093],[84.70278700071958,27.80618899972258],[84.70459400041283,27.8047499999126],[84.70599500026914,27.80409499938474],[84.70750800079365,27.801550999878753],[84.71039400078259,27.79959399956344],[84.71377500021607,27.799697999862836],[84.71653100050531,27.801172999534305],[84.71799900075334,27.80214099920779],[84.71898100017307,27.80233799929923],[84.72017000014542,27.801850999324216],[84.72110700018796,27.80086899990448],[84.72493700054216,27.79982299933201],[84.72607700005356,27.799229999864703],[84.72743600067093,27.797459000032852],[84.72987400068463,27.795149999672784],[84.7329580008112,27.79525799925735],[84.73576500075426,27.796621999205982],[84.73778600042365,27.79831199979905],[84.73827100030648,27.80004399963096],[84.73800100044588,27.80190699920868],[84.73865700012045,27.803071999872973],[84.73929800000279,27.803487999271812],[84.74206500079919,27.803541999963375],[84.74257000070499,27.80343799966407],[84.74271500019714,27.803175999272998],[84.74252800056686,27.802941999273887],[84.7420210005688,27.802920999204826],[84.7405330002978,27.80256299978263],[84.73917100044143,27.800917999466133],[84.73904000069554,27.799435999471854],[84.74207900054553,27.800920999604493],[84.7442490007908,27.799424999863874],[84.7493250001487,27.80060599946732],[84.74868400026646,27.801862999877567],[84.74872200022023,27.80212799950763],[84.74960100028603,27.802901999227945],[84.75102300021139,27.803779999247656],[84.75342300027133,27.805018999727114],[84.75495400072663,27.806528999213985],[84.75699200028063,27.80903999989612],[84.75744200034806,27.81160099928672],[84.75961000050116,27.814758999228538],[84.76119500074874,27.816837999773856],[84.76373100078511,27.81754299990955],[84.76676800054283,27.816685999958988],[84.76844100035201,27.814850999873773],[84.76803600056105,27.812608999905517],[84.76872400081206,27.8104709993372],[84.77058500029759,27.808734999320748],[84.77328700079444,27.80791899946231],[84.77602000002307,27.808201999922442],[84.77766400029347,27.809522999686774],[84.77963600040121,27.81154799954062],[84.78242700050575,27.81290499916644],[84.78550800049386,27.813197999188375],[84.78745000011746,27.813975999992422],[84.78946000017888,27.812968999419894],[84.791242000518,27.81179799937816],[84.79572100022405,27.812704999835923],[84.79901400009604,27.813894999854448],[84.80265700081996,27.814423999967673],[84.80401400044579,27.814269999161166],[84.80638900025221,27.8158509992243],[84.80807600070692,27.816390999844785],[84.81321700036428,27.81305499978841],[84.81492100070369,27.811480999148806],[84.8161220003301,27.80962599993999],[84.81669200053545,27.808083999876796],[84.81826700032187,27.806496999536943],[84.82184400070015,27.806946999604374],[84.82352800011714,27.808643999620884],[84.82316400041832,27.810825999520315],[84.8225560002593,27.812987999396686],[84.8241650007143,27.817023999358124],[84.82645800033647,27.818035999262],[84.82982900020825,27.81736199965663],[84.83176900063896,27.81587799957008],[84.83326500037957,27.81391399983133],[84.83368499996286,27.812730999236333],[84.83363400030893,27.812529999859635],[84.8334550001482,27.81242399946806],[84.832357000775,27.813033999719348],[84.83120799994931,27.814064999600106],[84.82504300073391,27.81349099921031],[84.82475399999716,27.811862999677793],[84.82531000045626,27.811196999541952],[84.82727200010274,27.80941999943347],[84.83311100047234,27.807199999580366],[84.83313100049531,27.80687800001975],[84.83175499999334,27.805478999356435],[84.83081700080399,27.804031999177468],[84.83239600077485,27.802910999642936],[84.8335670008165,27.804383999222225],[84.834952999981,27.805852999516432],[84.83516699995714,27.805936999792767],[84.83710600034166,27.804214999522657],[84.83901100005768,27.801595999255955],[84.83984000051565,27.80131099960301],[84.84271100071216,27.80149899927946],[84.84408100003814,27.801823999877715],[84.84685000002753,27.803309000010444],[84.84809599993052,27.804227999222817],[84.84876900038908,27.80494899919703],[84.84921000004152,27.806479999652332],[84.8493249999489,27.80768599950929],[84.85019000026836,27.80812999930009],[84.85088000061162,27.80814799923079],[84.85308100048785,27.807831999946895],[84.85619200006082,27.807026999696348],[84.85834000019094,27.80689799914344],[84.85983100060021,27.80642999914522],[84.86100500078021,27.805704999885926],[84.86192900022321,27.804426999406527],[84.86207800079919,27.803979999477455],[84.86256900005937,27.80345899973313],[84.86391700016948,27.801574999186894],[84.86535599997946,27.80104599997295],[84.86755600070896,27.801396999971615],[84.86881200017375,27.801360999210754],[84.87005400079157,27.8016959993709],[84.87114600078733,27.80217699996865],[84.87285800059627,27.803264999779962],[84.87374900031622,27.80430499917643],[84.87376700024693,27.804535999936462],[84.87273000008955,27.80531699997959],[84.8722360006909,27.805872999539403],[84.87220900034512,27.806347999860346],[84.87278000059656,27.806771999628175],[84.87505400024195,27.807820999439635],[84.87757500048598,27.80795299923162],[84.87864100018204,27.80814199985353],[84.87956100033998,27.808426999506473],[84.88108300038019,27.809360999410647],[84.88174600037767,27.80923499989538],[84.88253300069752,27.808259999899086],[84.88472400011257,27.80773999930157],[84.88523700038728,27.807844999647056],[84.88691900061144,27.808927999227826],[84.8882980003525,27.809030999481042],[84.88933200037154,27.808887999181884],[84.89048200034412,27.80838899955271],[84.89114700043378,27.807867999808387],[84.89200400038435,27.807656999970607],[84.89332600019476,27.8076849994632],[84.89996100039993,27.805724999908897],[84.90186400002368,27.805919999908067],[84.90415600049904,27.80703499916588],[84.90481600035817,27.807018999327358],[84.90614100030704,27.806127999607575],[84.90647800055936,27.805669000024434],[84.90673700081199,27.805054999588606],[84.90651600051304,27.803951999984864],[84.90662800028205,27.8036359998016],[84.9068939999582,27.803355999479827],[84.90857700022846,27.803348999157016],[84.91195500042305,27.80450199926796],[84.91251600021332,27.804349999452914],[84.91298200011927,27.80407899954622],[84.91329400011809,27.803713999801303],[84.91439500052893,27.8017289999934],[84.91647900040559,27.800367999283758],[84.91716700065659,27.80019299930747],[84.9181320001917,27.799620999909312],[84.92034200048302,27.79784799998528],[84.92286700001212,27.797043999780822],[84.9241300006991,27.79719199941124],[84.9252540003719,27.797523999433025],[84.92783400063865,27.798649999198187],[84.92997900063041,27.800051999999862],[84.9308260001199,27.800889999973542],[84.93157600053206,27.801119999788202],[84.93345400080149,27.80262199980554],[84.93603400016906,27.80427499959157],[84.93665200078925,27.80448399933717],[84.93728300021033,27.80450799954459],[84.93879800082719,27.804210999338206],[84.9397750000163,27.8043230000065],[84.94078700081954,27.805464999610095],[84.94177900070036,27.80707300001901],[84.94319800048737,27.808922999896566],[84.9438330000929,27.811092999242558],[84.94411900069139,27.81137299956433],[84.94564300082388,27.811964999884918],[84.94613500013024,27.812382999376027],[84.94778200053891,27.814831999896892],[84.94861700037433,27.815561999386816],[84.94972200007034,27.81587799957008],[84.95147400082449,27.814963999688878],[84.95256100058971,27.81479599913612],[84.95422200074482,27.815400000010058],[84.95691800006568,27.817017999980774],[84.95874400063518,27.817417999541092],[84.95980199996235,27.81713499998033],[84.96180300050806,27.816029999385037],[84.96255600015931,27.815100999711404],[84.96295000034227,27.81390499941625],[84.96424300061402,27.81199599951587],[84.96437100022156,27.811110000026538],[84.96478900061194,27.810682999221157],[84.96572600065448,27.81006099931571],[84.96765800071618,27.8100619993618],[84.96822900006835,27.80963099927125],[84.9687380001586,27.808499999275636],[84.9694070004328,27.806173999930238],[84.97071100031243,27.805029999335005],[84.9710870005647,27.804853999312716],[84.97144200074781,27.804357999821903],[84.97150100077064,27.804026999846208],[84.97120500061034,27.803551999525176],[84.97118800072573,27.80323999952636],[84.97142700005601,27.802436999368084],[84.97212200062991,27.801648999901516],[84.97318200004935,27.801257999856908],[84.97602600079937,27.800535999836605],[84.9775990004935,27.80066499949023],[84.98051800020558,27.801827000016075],[84.98179200050053,27.801810999278274],[84.9834310005403,27.80275399959744],[84.98437399996018,27.8036029991791],[84.98707300031877,27.80450799954459],[84.98807400061467,27.804672999959077],[84.9889240002425,27.80428299996056],[84.99092400074213,27.802446999829254],[84.99219399995316,27.802202999368973],[84.99413900061441,27.8027669992976],[84.99500700017295,27.802886999435515],[84.99650300081285,27.802302999483917],[84.99761300073949,27.801589999878605],[84.99894100082653,27.800954999373804],[85.00097200005783,27.800490999560033],[85.00313300078739,27.80130299923402],[85.0056930001319,27.803910999892743],[85.00689100051932,27.804338999845022],[85.0093570000256,27.80491599947381],[85.01145000031735,27.805883000000485],[85.01337600010234,27.806540999767336],[85.01455900069733,27.807203999764816],[85.0151200004877,27.808119999738288],[85.01520200067185,27.809180999203818],[85.01536800023305,27.809340999387675],[85.01603000018444,27.809572999294517],[85.0162330005526,27.80984799938575],[85.01627700078299,27.810166999707373],[85.01597300025381,27.810427999152896],[85.0141710007911,27.810336999453032],[85.0136920002856,27.810643999221217],[85.01343099994071,27.81112199968061],[85.01332500044842,27.811923999792796],[85.01379800067727,27.813760999970192],[85.0149710008111,27.815346999364586],[85.01589600030027,27.817663999194274],[85.01645399995219,27.818331999422295],[85.01709000050316,27.818697999213303],[85.0177570006851,27.819350999648982],[85.01798700049976,27.82013599987656],[85.01851100038245,27.820975999942508],[85.01868300022036,27.821489999364022],[85.0187600001739,27.822396999821784],[85.01926700017196,27.824071999723053],[85.01964800065477,27.825876999324127],[85.02098200011926,27.82767099931722],[85.02184800048491,27.829085999819057],[85.02205099995379,27.829679999332544],[85.02226000059858,27.831157999142462],[85.02354500050141,27.833335999756635],[85.02382100063873,27.834467999798427],[85.02387900061547,27.836345000021765],[85.02374900001638,27.838653999482553],[85.0234150008017,27.840850999174325],[85.02252700032082,27.84161499933284],[85.02181900004686,27.841945999308447],[85.02156600007086,27.842390999145337],[85.02162700018596,27.843153999257673],[85.0222760004371,27.844029999185203],[85.02284500059635,27.844425999460352],[85.02830500057534,27.847537999978787],[85.029649000501,27.848063999953652],[85.03101100035745,27.84889999983515],[85.03240300069795,27.850317999576067],[85.03263700069706,27.851994999569605],[85.0328010001661,27.8524929991526],[85.03313600032624,27.852819999843213],[85.03407000023041,27.853126999611398],[85.03779000000858,27.853311000002677],[85.03917100074112,27.852834999635554],[85.03994000023089,27.85274799922077],[85.04093000001953,27.853144999542188],[85.04194700015394,27.85334399972581],[85.04242600065952,27.853020999219822],[85.04297200065736,27.851732000031813],[85.04395600016936,27.851091999296383],[85.0469030002733,27.851162999872557],[85.05037800044438,27.85231999926858],[85.05201800053034,27.8525609995905],[85.0551910002645,27.853515999563825],[85.0570990001188,27.85536199925693],[85.05807200002282,27.856554999413728],[85.058943000619,27.857131999941885],[85.05995900070732,27.85744099980234],[85.06097200065739,27.85726799991832],[85.06331900007184,27.85593599964673],[85.06919800048739,27.85361699972477],[85.0716780006393,27.85291399968135],[85.07395800056132,27.85211099952307],[85.07561800067025,27.851760999570494],[85.07647100043636,27.851768999939484],[85.07762800073166,27.85230799961451],[85.07929200012576,27.853944999562106],[85.08053900007484,27.854709999766712],[85.08306400050331,27.855404999441234],[85.0837620003161,27.855282999211138],[85.08594400021545,27.85400999986165],[85.08711100007264,27.85407099997674],[85.0882209999992,27.85469199983592],[85.08987000050023,27.856068999484805],[85.0913100003563,27.85807899954622],[85.09374700032382,27.859426999656332],[85.09990600016177,27.85790699970838],[85.10248300029035,27.857627999432697],[85.10569200078528,27.858039999546367],[85.10694199997343,27.8583149996376],[85.10785899999291,27.85829299952236],[85.10996600003091,27.857951999984863],[85.11066400074307,27.858040999592546],[85.1125510005283,27.85723999952645],[85.11279800022757,27.85727399929567],[85.1133340006637,27.857607999409726],[85.11298900004238,27.85851599991349],[85.11150400080902,27.859364999495238],[85.1114010005558,27.86004299928506],[85.11245600064399,27.86220199992244],[85.11262000011301,27.86309199959622],[85.11581100067716,27.86861299969021],[85.11677500016619,27.869329999479973],[85.11875999997409,27.870152999661222],[85.11975399994718,27.87095299968123],[85.12286400037343,27.87226899921502],[85.12546500070926,27.87379699953196],[85.127123000726,27.87462699913674],[85.12823500074472,27.875942999569812],[85.12840000025984,27.87825899935332],[85.13020799999929,27.881957999961802],[85.1323810003829,27.88382799986242],[85.13406300060709,27.885674999601616],[85.13835300059051,27.889013999796262],[85.1384770000136,27.889501999817455],[85.13862600058947,27.89177299932457],[85.13915799994177,27.892672999459432],[85.13940500054042,27.893405999986996],[85.13940500054042,27.89410900003033],[85.13921800001079,27.894713999151797],[85.13837899999092,27.896323999652893],[85.13849300075148,27.89837199966807],[85.13864200042799,27.899188999572775],[85.13959000007851,27.900597999797892],[85.14167800013972,27.902412999860136],[85.14226400018349,27.905624999594146],[85.14115300021085,27.909097999673047],[85.13845500079772,27.911424999963817],[85.13753200050154,27.913303999380144],[85.13784400050035,27.914815999858565],[85.13897900068041,27.91536999932602],[85.13998000007703,27.91618499913846],[85.14306100006515,27.91791599982365],[85.14362399994768,27.91836999917616],[85.1471020002572,27.919734999170974],[85.14756200078573,27.920118999792052],[85.14773100048538,27.920420999329696],[85.14819900048352,27.920670999167328],[85.14897300020382,27.920607999859424],[85.15013799996875,27.921505999902017],[85.15085800079615,27.921711999509256],[85.15165800081616,27.922357999622037],[85.1518390001698,27.923440999202807],[85.1518640004234,27.925309999956614],[85.15219300030682,27.92610899993044],[85.15220900014535,27.926424999214426],[85.15188500049246,27.926801999512694],[85.15161999996312,27.92755999939449],[85.15089600074982,27.92882299918209],[85.15075200040458,27.93033799979887],[85.15092400024251,27.930618999267452],[85.1511770002185,27.930743999635908],[85.15138100063275,27.930717999336217],[85.15200000039975,27.930296999706837],[85.15227200035262,27.930254999568625],[85.15368100057773,27.93032699929161],[85.15452500082823,27.93056299938299],[85.1548940007576,27.93082499977397],[85.15447300022885,27.931181999149988],[85.15443500027509,27.93145699924113],[85.15541100031747,27.932235999192077],[85.15563699994767,27.932660999905277],[85.15712600026477,27.934528999713624],[85.15742300047116,27.935182999296025],[85.15778800021607,27.936529999360047],[85.15782700021592,27.937121999680546],[85.15809300079144,27.93766599958629],[85.15970900066989,27.938784999927833],[85.15985600025421,27.939024999304294],[85.16049600009036,27.939533999394637],[85.160996000665,27.94125899980302],[85.16178200003938,27.942710999313157],[85.16223200010681,27.944150999169313],[85.16261800082016,27.9449349993508],[85.16274500038152,27.945856999600903],[85.16316000063355,27.946541999713624],[85.16389700044628,27.947420999779336],[85.1641060001918,27.948090999200346],[85.16437100072122,27.948509999636826],[85.16409800072226,27.950809999581814],[85.16411600065297,27.952152999461386],[85.16383000005456,27.953183999342144],[85.16412500016867,27.953826999316654],[85.16484300000452,27.954868999704583],[85.16508000014191,27.95550599940246],[85.16567300050859,27.955777999355245],[85.16671000066606,27.956024999953886],[85.16831100075217,27.956792999397482],[85.16849900042861,27.95718999971872],[85.16907200077232,27.957416999395022],[85.16930900001043,27.957706999278596],[85.1692140001261,27.958195999345968],[85.16930000049472,27.958539999921104],[85.17043000044424,27.958754999943334],[85.17056900055903,27.959402999249015],[85.17261500048194,27.96206499970002],[85.17366600038567,27.963078999696076],[85.17541900028672,27.963893999508514],[85.17666300009745,27.96424799964554],[85.17719200021067,27.96465699962094],[85.17875200020474,27.9663759997526],[85.18031700042927,27.96745999937955],[85.18178300058511,27.968170999791873],[85.18427700048328,27.968839000019894],[85.18552500047844,27.96983999941651],[85.18621100063726,27.970571999897896],[85.18644100045182,27.970973999550484],[85.18629399996821,27.971374999156893],[85.1862850004525,27.97221799936129],[85.18637900029073,27.97240499989093],[85.18709299994204,27.972979999427448],[85.18896400078812,27.97326399993367],[85.18966000050874,27.9734959998406],[85.19019700009149,27.973989999239144],[85.19057400038984,27.974627999882305],[85.19060300082789,27.97542599981013],[85.19041400020599,27.976179999507387],[85.18970300069294,27.976759999274535],[85.1887240005123,27.976875999228],[85.18802100046886,27.976600999136856],[85.18633900024479,27.97536399964886],[85.1845960008048,27.97515399985726],[85.18398600055352,27.97535899941832],[85.1830300005341,27.978239999176633],[85.18256700076651,27.979081999334852],[85.18221500072175,27.98032199986049],[85.18170700067759,27.981209999441912],[85.18159700010156,27.982125999415384],[85.181863000677,27.983680999178826],[85.18237900019078,27.984325999245517],[85.1837710005313,27.98974399998566],[85.18462600038967,27.991819999493426],[85.18478500052744,27.993023999258202],[85.18471399995117,27.993777999854828],[85.18479299999697,27.994413999506527],[85.18543700001757,27.995819999593373],[85.18668600005891,27.996708999220974],[85.18718000035673,27.99787499993136],[85.18736699998709,28.00048099959853],[85.18662599999,28.002489999613854],[85.18575900047755,28.005350999349197],[85.1860330005226,28.00647199978301],[85.18549700008657,28.00795199968511],[85.18519400050283,28.01011099942312],[85.18526300008746,28.013169999296082],[85.18569900040855,28.014267999568563],[85.18641099996778,28.015103999450062],[85.18826700012205,28.016888999927446],[85.18842700030591,28.01809899996894],[85.18834000079049,28.019688999547697],[85.18765800081613,28.020587999636557],[85.18691900001194,28.021241999218958],[85.18624800054484,28.022086999515448],[85.18627399994516,28.02295499997327],[85.18730100054083,28.02425699976081],[85.19082100008912,28.02575399954752],[85.19283700042725,28.02727699963392],[85.19370800012415,28.028233999699335],[85.19501300004997,28.030990999135284],[85.19540300004849,28.032481999544732],[85.1955660003707,28.03265799956702],[85.19545800078613,28.0336869993556],[85.19522100064866,28.03413999956139],[85.1953380006483,28.034487999421696],[85.19513700037233,28.035116999649865],[85.19523300030282,28.03669599962073],[85.19503900034965,28.03739799961806],[85.19515100011867,28.038254999568622],[85.19495299998106,28.039046999219728],[85.19520300071797,28.039984999308352],[85.19579700023145,28.040874999881414],[85.1968620007808,28.041942999669754],[85.19753300024782,28.042442999345017],[85.19806000026885,28.042638999390366],[85.19983100010062,28.043844999247412],[85.2006680000283,28.043727999247857],[85.20076900018924,28.043905999362416],[85.20063700039735,28.044107999684485],[85.20066599993602,28.044308999960464],[85.20105300069547,28.044775999912506],[85.20136200055592,28.044939999381533],[85.20164500011677,28.04553299974821],[85.20211400016099,28.046074999561686],[85.2024620000213,28.046244999307344],[85.20278400048129,28.04680299985862],[85.20311300036471,28.04698699935053],[85.20361800027061,28.048006999623396],[85.20382000059259,28.0487639994591],[85.2044730001289,28.049626999686293],[85.20512900070284,28.049847999985243],[85.20515300001098,28.050292999822133],[85.20655200067431,28.05132399970289],[85.2073880005559,28.05217599942291],[85.20768500076227,28.052689999743706],[85.20847000009049,28.05280099946663],[85.20872600020483,28.052956999466037],[85.20848300069001,28.053523999533024],[85.2086860001588,28.05389899973911],[85.20918300059508,28.05407599980758],[85.20909300004202,28.054422999621796],[85.20937000022535,28.055005999527303],[85.20940500004075,28.056149999223166],[85.20969100063924,28.056559999244566],[85.20963799999376,28.056769999935625],[85.20904800066482,28.05733299981816],[85.20897600004237,28.057571000001722],[85.20927600038712,28.058269999860695],[85.20909900031864,28.05921099918831],[85.20914400059522,28.05963099967097],[85.20923100011063,28.05989399920876],[85.20942100077863,28.06005099925426],[85.2093980006173,28.060183999991615],[85.20885500075774,28.060645999713206],[85.20853000015948,28.061332999918108],[85.20815900013784,28.06266100000525],[85.20755300007092,28.06394199972355],[85.20746800064778,28.064300999191836],[85.2076060007164,28.065359999464466],[85.20740700053277,28.06568099987827],[85.20740800057887,28.065954999923324],[85.20715400055668,28.066138999415323],[85.20673199998186,28.067047999965265],[85.20687000005056,28.067422999271983],[85.2067709999817,28.06798999933906],[85.20683700032734,28.06821699991464],[85.20762799993226,28.069038000003708],[85.20804200013829,28.069258999403377],[85.20818400039136,28.069483999886778],[85.20829700020646,28.07020599990708],[85.20907100082606,28.07104199978849],[85.20935300034073,28.071190999465088],[85.20959200057038,28.07167199916347],[85.20987500013123,28.071817999600988],[85.21015800059128,28.072261999391788],[85.21039000049821,28.07314099945759],[85.21109000040327,28.073851999869913],[85.21185000037734,28.074345999268544],[85.21270200009727,28.0746529999361],[85.21434000009104,28.0755339991948],[85.21527700013348,28.0763609995605],[85.21590400026948,28.076659999859153],[85.21693900033469,28.077558999947925],[85.21802600009991,28.078193999553534],[85.21820500026064,28.07855099982883],[85.21863800044346,28.078879999712257],[85.21876200076574,28.079248999641624],[85.21945300025581,28.079925999385445],[85.22064500036652,28.080525000028754],[85.22112100073365,28.08024899989143],[85.22209800082211,28.08044499993687],[85.22189400040787,28.08090699965837],[85.22214300019941,28.081368999379873],[85.22270700012804,28.081573999840302],[85.22326200054096,28.081615999978425],[85.22400900081486,28.082098999769077],[85.22518700027994,28.0819499991932],[85.22572800004724,28.082046000022974],[85.22605000050721,28.08220499926137],[85.22627400004517,28.08255799935222],[85.22684100011215,28.082749999213117],[85.22704600057249,28.08322399948806],[85.22752600022478,28.08324399951103],[85.22869200003579,28.084049999807668],[85.22919100056434,28.08457799987489],[85.22937700014852,28.085308999410906],[85.22995000049222,28.085676999294183],[85.23022500058336,28.086187999476618],[85.23013500003022,28.086720999774382],[85.23023099996071,28.087045999473357],[85.23095400002711,28.08753199940228],[85.23117800046442,28.0879469996544],[85.23230600032176,28.088948999996386],[85.2330950007337,28.089297999902872],[85.23486700061164,28.08969799946319],[85.23705800002678,28.090468999944427],[85.23817700036832,28.090454999298895],[85.23911600050313,28.090622999851654],[85.23960900075487,28.090843999251234],[85.24070399998962,28.090881999204996],[85.24156300003253,28.091290999180305],[85.2430640000036,28.09143299943346],[85.24423000071398,28.09138700001008],[85.24574400038532,28.091781999339858],[85.24681100012756,28.091684999363274],[85.24905700028044,28.091731999732115],[85.25107500071076,28.092072999269522],[85.25206900068393,28.092560999290715],[85.25275100065821,28.09243799991381],[85.25607200002287,28.093682999770706],[85.25718700017997,28.094345999768098],[85.25874199994341,28.094308999860516],[85.26116500016467,28.09526599992602],[85.26188300000052,28.095783999531985],[85.26253500039002,28.096620999459574],[85.26357600073194,28.097145999388438],[85.26464100038193,28.097058999873024],[85.2647750002661,28.097542999709766],[85.26456900065895,28.098096000030413],[85.26484500079619,28.098587999336775],[85.26462200040505,28.099002999588805],[85.2646430004742,28.099211999334315],[85.26543700021749,28.099893999308676],[85.26623200000687,28.100317999975786],[85.26685900014276,28.10082399992768],[85.26708700076452,28.10145299925657],[85.26731300039474,28.101512999325482],[85.26784800078468,28.10122099934964],[85.26842500041356,28.101168999649627],[85.26893200041154,28.10146399976383],[85.27008300043022,28.10271599994345],[85.27113500038003,28.103293999618415],[85.27177400017,28.10381699945501],[85.27181900044657,28.104408999775597],[85.27261200014377,28.105149999772692],[85.27279300039669,28.105634999655525],[85.27316300037224,28.106112999215636],[85.27378800041596,28.10643299958335],[85.27454700034384,28.1066289996287],[85.27603000038421,28.107829999255117],[85.27650400065916,28.108040999992266],[85.27737600040214,28.108153999807282],[85.27795700021547,28.10918899987249],[85.27911900074132,28.1098499997777],[85.27927300064854,28.110301999937402],[85.28016200027615,28.11134099928769],[85.28176800059279,28.11216199937685],[85.28271300010495,28.113087999811402],[85.28328600044865,28.11430699936861],[85.2837170005392,28.114885999988946],[85.28433000002948,28.115226999526442],[85.28465200048946,28.115928999523774],[85.28514300064901,28.116394999429726],[85.28683700052726,28.117412999610323],[85.28853200045158,28.11821199958415],[85.28898899994246,28.119140999257784],[85.28924200081772,28.119354999233924],[85.28985600035419,28.119582999855595],[85.29080100076563,28.120671999713085],[85.29166099995525,28.12098899994244],[85.29218900002239,28.121318999872045],[85.29255600075895,28.121769999985567],[85.29561700072409,28.12437499960656],[85.29708800021112,28.125224999234398],[85.2976550002781,28.125435999971458],[85.29826500052938,28.126217999161394],[85.29930800006422,28.12677199952822],[85.29959600075489,28.127106999688365],[85.29939300038673,28.127762999362947],[85.29946000077845,28.128319999868133],[85.29975000066212,28.128590999774914],[85.301249000541,28.129371999817952],[85.30141600014831,28.129733999424598],[85.30144400054027,28.13064099988227],[85.30169000019336,28.131374999556645],[85.3028080004889,28.13195099913934],[85.30377700020847,28.1345029999136],[85.30487900066541,28.13536799933378],[85.30521499997236,28.136241999168952],[85.30557800052438,28.1368369996279],[85.30627200015272,28.136994999719487],[85.30662300015139,28.137313999141742],[85.30718700008002,28.13896099955051],[85.30778700076951,28.139694999224883],[85.3093289999335,28.140826999266675],[85.31042800025207,28.140792999497364],[85.31150900063994,28.141043999381086],[85.31252700082045,28.14222199974554],[85.31304200028815,28.1430789996961],[85.31375400074656,28.143653999232797],[85.3157890001623,28.144617999621023],[85.31912700031086,28.146675999198088],[85.3203679999833,28.14777399947057],[85.32147100048633,28.14838799990631],[85.32205200029965,28.149168999949435],[85.32328100031802,28.149765999601282],[85.32439600047512,28.14993799943912],[85.32558000021692,28.150303999230218],[85.32629000058316,28.150857999597044],[85.32727600018734,28.15205399989229],[85.3283140003909,28.15290999979667],[85.3304140001061,28.15528699969527],[85.3319909999847,28.155871999693048],[85.33332400030237,28.157186999180748],[85.3341650004145,28.15767699929412],[85.33462000071248,28.15789399940862],[85.33604900006137,28.158248999591738],[85.33647599996748,28.15850899989054],[85.3366990003586,28.158795999635753],[85.33684400075012,28.15935499933384],[85.33729499996436,28.16001799933123],[85.33855700060515,28.16085399921273],[85.33996400073808,28.1623519999449],[85.34035000055215,28.16260299982862],[85.34059600020534,28.162970999711987],[85.34086600006584,28.163060999365673],[85.34185400066167,28.162865999366414],[85.34333700070214,28.16296399938909],[85.34370800072377,28.163475999617702],[85.34381400021597,28.164193999453556],[85.34362200035507,28.165702999793705],[85.34388500079224,28.166475999467842],[85.34367300000899,28.168202999968493],[85.34386699996216,28.17026799986837],[85.34343300063253,28.174252999276515],[85.34388800003123,28.177423999817773],[85.34383900046957,28.179866999162726],[85.34349200065536,28.18080299915917],[85.34351800005577,28.181193999203778],[85.34446900074383,28.182227999222807],[85.34514500044148,28.183708999170996],[85.34533700030238,28.184397999468167],[85.34583500078465,28.18527799958006],[85.34613600027629,28.18556099914091],[85.34658600034372,28.185693999878268],[85.34719100036448,28.18723799913445],[85.34780699999311,28.188171999937904],[85.34849300015192,28.18960499947125],[85.34888000001207,28.19000899921602],[85.3497130006545,28.19199699916228],[85.35118200004933,28.194601999682643],[85.35122300014137,28.194796999681813],[85.35106000071852,28.19513999931158],[85.35124800039497,28.196118999492324],[85.35264500006673,28.197676999394037],[85.35309800027252,28.19793399955448],[85.35309700022644,28.198548999137117],[85.35348099994823,28.199294999364753],[85.35353600068598,28.20012800000726],[85.35413600047609,28.20049699993663],[85.35413800056837,28.200655000028306],[85.35373700006258,28.200917999566098],[85.3535979999478,28.201262999288044],[85.35362100010911,28.201532000001837],[85.35408700001507,28.202185999584326],[85.35401800043044,28.20247499942172],[85.35421900070642,28.203243999810777],[85.35515799994177,28.20441099966797],[85.35566599998593,28.20524199931884],[85.35593100051537,28.206239999476466],[85.35577600056205,28.207747999770437],[85.35563500035508,28.208326999491494],[85.35531800012564,28.208923999143252],[85.35520200017226,28.21019499929984],[85.35523599994147,28.211352999641324],[85.35596600033068,28.212065999246548],[85.35560100058576,28.212504999706],[85.35583700067706,28.21339799951814],[85.35572399996266,28.21426499992987],[85.35583900076932,28.21471599914411],[85.35575800063125,28.21572099962446],[85.35656900025916,28.2170589992734],[85.35705700028043,28.217628999478748],[85.35713100009569,28.218183999891753],[85.35735100034846,28.218623999498014],[85.35771100076212,28.21872699975132],[85.35800200069187,28.219078999796075],[85.35827000046021,28.2192079994497],[85.35941900038661,28.22043099919127],[85.36040900017525,28.22092799962754],[85.36084400045034,28.220815999858527],[85.36103800040341,28.22132999928013],[85.36205300044566,28.22175199985497],[85.36191700046922,28.222041999738543],[85.36191500037704,28.2224289995987],[85.36222400023749,28.222722999666725],[85.36215800079114,28.223394999179916],[85.36226900051398,28.22393899998494],[85.36243700016745,28.22412799970748],[85.3622310005603,28.224807999589572],[85.36236700053674,28.226122999976464],[85.36271800053541,28.226523999582962],[85.36295100048834,28.226603999674936],[85.36380000007,28.226138999814985],[85.36391000064602,28.226115999653743],[85.36399800020762,28.22627099960697],[85.36361800067027,28.226730999236292],[85.36319299995706,28.22690699925867],[85.36241400000613,28.22692999942],[85.36216700030694,28.22729799930328],[85.3621800000071,28.22840099980639],[85.36154200026313,28.23080099986632],[85.36150800049391,28.23141899958723],[85.36166700063167,28.23201999942344],[85.3616760001473,28.232946999904172],[85.36091099994277,28.233876999623895],[85.36074100019704,28.23442799985236],[85.36020800079864,28.235219999503467],[85.36030100059077,28.23568699945551],[85.3600560000844,28.236233999499525],[85.3600450004765,28.23699199938132],[85.35983200054646,28.237255999864573],[85.35945800038647,28.238764999305353],[85.35969400047784,28.239655999924505],[85.3593840005713,28.2401889993229],[85.35954800004023,28.2406659997362],[85.35930600057151,28.242166999707273],[85.35957100020157,28.242486000028897],[85.35965100029345,28.242835999981473],[85.36067900003584,28.243963999838815],[85.36114900012635,28.24426199919192],[85.36205300044566,28.244422999421957],[85.36267400030492,28.24491999985814],[85.36336799993326,28.24510299930405],[85.3637290003931,28.24596199934679],[85.36473200078127,28.24723699968783],[85.3655139999712,28.247820999639515],[85.36589500045402,28.24834799966047],[85.36652300063609,28.249779999147638],[85.36679500058888,28.250002999538857],[85.36693699994267,28.25046799939872],[85.36720600065645,28.250619999213676],[85.36702700049571,28.250980999673423],[85.36700700047274,28.25138099923383],[85.36718900077184,28.252304999576115],[85.36703400081852,28.253116999250192],[85.3672900000335,28.25522199919592],[85.36707300081838,28.25585699970081],[85.3670880006108,28.256367999883334],[85.36737900054047,28.257050999903786],[85.36791800021558,28.257739999301588],[85.3693870005097,28.25863399915973],[85.37091599997346,28.260028999638685],[85.37303800070326,28.260721999220937],[85.37360400072416,28.261388999402868],[85.37436100055977,28.26315099971892],[85.37516400071813,28.263848999531803],[85.37807299996904,28.26465299973617],[85.3783190005215,28.265654000032068],[85.3774480008246,28.266492999152646],[85.37745400020204,28.266967999473678],[85.37826100054477,28.26829499951473],[85.37902572195958,28.270229295545633],[85.37919567134321,28.270231314523596],[85.3796772645941,28.271709394373133],[85.37946349574374,28.272593856021675],[85.37946500030955,28.27274899986647],[85.37936960292488,28.272982336165907],[85.37935467957486,28.27304408271831],[85.37891306748415,28.275582019894372],[85.37903383744165,28.2775912249551],[85.38027200245101,28.279033661973994],[85.38392565294659,28.280727779663415],[85.38590433951371,28.28320512501654],[85.38864844087293,28.285066836765125],[85.3905567195171,28.28553551305357],[85.39255106148235,28.286986755334585],[85.39333327291229,28.288602182344878],[85.39582794730202,28.291001060050956],[85.39694608249579,28.29252917727971],[85.39806720793538,28.29385971525373],[85.39921660806006,28.296617735420202],[85.40142864441646,28.299651670288426],[85.40365336031437,28.300182699272234],[85.40448617929374,28.300895038775085],[85.40481999684548,28.30179914971107],[85.40601368138638,28.30237208170625],[85.40737912294824,28.302869852861477],[85.40827964379058,28.30438870257663],[85.41081505567031,28.305800896294418],[85.41218774486853,28.307409016313077],[85.41295600601497,28.30827687198014],[85.41442368340633,28.308272980613623],[85.41412880110339,28.309002779554724],[85.41284423377444,28.309427782066575],[85.41368865490755,28.3106983640383],[85.41575511800436,28.312627975500735],[85.41541531906178,28.315920216344946],[85.4144399809205,28.318896053210317],[85.41387804493591,28.321464664462724],[85.41516298998006,28.325084793628406],[85.4184442195252,28.32754350412947],[85.42174918937366,28.328405824469225],[85.42530218684651,28.328240869920272],[85.42861330266182,28.328691073234456],[85.43227363062361,28.32914520928402],[85.43538532717116,28.33129255830502],[85.43820540145813,28.33348800396824],[85.44220763187677,28.334460824907158],[85.44389251712605,28.334482943732862],[85.44527871144342,28.33408093418783],[85.44667003639316,28.33332543172333],[85.44838377099424,28.332878910233504],[85.44968939594888,28.331768863542226],[85.4495899714001,28.332362318965963],[85.44928542768044,28.3333230494192],[85.45027858858604,28.333720012868334],[85.45304834940185,28.334346038139156],[85.455147636854,28.334867995661515],[85.457395240498,28.335182690928516],[85.45968613121006,28.335015740783874],[85.4610619941158,28.334067075635037],[85.46150777456418,28.333381097060027],[85.46173713406152,28.333849711295176],[85.46321371923779,28.334734130675663],[85.46491179844082,28.33411045443399],[85.46573705502114,28.333557291335996],[85.46772588144432,28.33292077817142],[85.46960016841307,28.332609128908224],[85.47063219531967,28.331404822474624],[85.47212306712585,28.330635882340214],[85.47433849662437,28.330941265127272],[85.4763631088704,28.329804128158063],[85.4775940640149,28.32798469263955],[85.4797874151571,28.326868089890443],[85.48128387445128,28.327184051402952],[85.4819452322867,28.326761175787716],[85.48216389794563,28.324762073710772],[85.481970463666,28.322010150048403],[85.4839099406913,28.31791640461838],[85.48623015199998,28.315285915512643],[85.48881388445321,28.3134439519769],[85.49076595648373,28.312701054410148],[85.49151618082718,28.310649374369177],[85.49269535840418,28.308399329965138],[85.49513240603578,28.307613836009747],[85.49711541834196,28.306475133320806],[85.49781295950058,28.303494390653626],[85.49864522899416,28.30025399932263],[85.49868676688081,28.297295045430058],[85.50037189584643,28.294005986387248],[85.50172471542332,28.291032408618875],[85.50286377334454,28.289275055099814],[85.50465296825998,28.287901992682894],[85.50529829208253,28.28637386376287],[85.50842712521174,28.284702996246345],[85.51032784055747,28.286533214636254],[85.51227276387702,28.28801591340375],[85.5135844952283,28.28980487269681],[85.51630648765433,28.29195712751944],[85.51906548988048,28.294283719518052],[85.52062192316328,28.295448912637287],[85.51826053729403,28.295632091048216],[85.51639181533001,28.297142888233704],[85.5139314662642,28.298786410064867],[85.51055479976428,28.30128982676414],[85.50858444091931,28.304434880965033],[85.50798407330635,28.308012453312113],[85.50646949806894,28.309299082786453],[85.50407385792224,28.312561724244254],[85.50145643416717,28.316039529400825],[85.49934458678327,28.31853134124844],[85.49734159513855,28.321048498689326],[85.49590100083061,28.32243523080131],[85.49447331718989,28.322903141766663],[85.49190221121812,28.32704953620717],[85.49039516330613,28.33015786119639],[85.4921998742249,28.330981389279806],[85.49314449961898,28.331973967424727],[85.4903131694173,28.33238909088389],[85.48921210695326,28.33532331881616],[85.48822325559885,28.33745521118911]],[[84.74512900000342,27.80383099980086],[84.74699900080331,27.8043079993147],[84.74887800021955,27.804248999291968],[84.74911200021874,27.804006999823237],[84.74880000021993,27.803545999248545],[84.74551799995575,27.80297999922765],[84.74473100053527,27.80299700001163],[84.74458500009776,27.80320099952651],[84.74466900037409,27.8034359995718],[84.74512900000342,27.80383099980086]]]},"properties":{"Id":0}}
]}